{
"type": "FeatureCollection",
"name": "mag_workshop_boundaries",
"crs": { "type": "name", "properties": { "name": "urn:ogc:def:crs:OGC:1.3:CRS84" } },
"features": [
{ "type": "Feature", "properties": { "name": "West" }, "geometry": { "type": "Polygon", "coordinates": [ [ [ -111.882575623506014, 40.471832321340493 ], [ -111.88623832336701, 40.46984954572239 ], [ -111.887023045039996, 40.468077779932003 ], [ -111.89106362055, 40.466330504414508 ], [ -111.892390459965995, 40.464090564218196 ], [ -111.900892191324004, 40.463457049893201 ], [ -111.907552238240015, 40.453508663857491 ], [ -111.914865787618012, 40.452243815709402 ], [ -111.919126629437997, 40.443199203790599 ], [ -111.930795633019002, 40.433764563408104 ], [ -111.946026535422007, 40.424821175948502 ], [ -111.950120007118997, 40.423355184224292 ], [ -111.952570352915004, 40.42324493069551 ], [ -111.954696127576995, 40.421439120288795 ], [ -111.957358633416007, 40.421998179480305 ], [ -111.958693494856007, 40.419292542649799 ], [ -111.960052835594993, 40.418399286555797 ], [ -111.967984686245998, 40.419735839089292 ], [ -111.973672968634006, 40.417262865024711 ], [ -111.978669399278004, 40.417097254742202 ], [ -111.979215859671001, 40.415846690982512 ], [ -111.981973203568003, 40.414174667333292 ], [ -111.985740993975995, 40.418191220803593 ], [ -111.992258274967995, 40.420050766824403 ], [ -111.992787876552001, 40.424323658471202 ], [ -111.999256765173001, 40.4241345926756 ], [ -112.002373728661993, 40.42692649898531 ], [ -112.006482120255001, 40.426535851971096 ], [ -112.006741974844999, 40.428862393100601 ], [ -112.009081412396, 40.432682492951891 ], [ -112.006821661388003, 40.433731013152205 ], [ -112.006609145637995, 40.435213026459294 ], [ -112.009722468958998, 40.435893973841196 ], [ -112.010715195656005, 40.437232128447292 ], [ -112.016364799905006, 40.4350168551967 ], [ -112.02135024959, 40.438798990980594 ], [ -112.021787625843004, 40.440741946218594 ], [ -112.024576473915999, 40.443167676934792 ], [ -112.024809791710013, 40.444399825171708 ], [ -112.020350081523006, 40.447277074364294 ], [ -112.022260831390994, 40.447927749525199 ], [ -112.024655722711003, 40.450404704809287 ], [ -112.031487127532003, 40.450552950468698 ], [ -112.030426194058009, 40.453899296501191 ], [ -112.032807832097006, 40.457864459758802 ], [ -112.033159249887007, 40.4625576331511 ], [ -112.036034083904013, 40.464275111183007 ], [ -112.038689278697007, 40.464359386129999 ], [ -112.041924794836007, 40.460397903615203 ], [ -112.045089479225993, 40.458967555430405 ], [ -112.046680102964018, 40.456813560713194 ], [ -112.059482865641016, 40.452948333951106 ], [ -112.060712241599006, 40.450657819422609 ], [ -112.065184343290994, 40.448810418946294 ], [ -112.066800626444007, 40.446395554255794 ], [ -112.070952007168003, 40.445691411549795 ], [ -112.072723254498996, 40.447033522416795 ], [ -112.079031571599998, 40.446637875275599 ], [ -112.081438281927007, 40.4482540929802 ], [ -112.084012061568004, 40.447564230524307 ], [ -112.087802571013995, 40.448400676473391 ], [ -112.088762330945002, 40.447807867133591 ], [ -112.093436463847993, 40.447862842919598 ], [ -112.101180387792994, 40.445550631429391 ], [ -112.104597596643998, 40.442594657284396 ], [ -112.109320220724001, 40.440815228935605 ], [ -112.112005626436996, 40.438920091171909 ], [ -112.114519357066996, 40.4415597966902 ], [ -112.113428302789998, 40.4474674959013 ], [ -112.114793036918996, 40.450702024726709 ], [ -112.120634895806006, 40.453527456300002 ], [ -112.123934678243998, 40.458343059602392 ], [ -112.129733453666006, 40.46191347067991 ], [ -112.131732752792004, 40.464379438948704 ], [ -112.137021140459012, 40.4667968442877 ], [ -112.138807024504999, 40.468475616191498 ], [ -112.141102458057006, 40.4685439641855 ], [ -112.143228408504996, 40.470442726412301 ], [ -112.145931224034996, 40.4704619037987 ], [ -112.148862733141002, 40.469572461465802 ], [ -112.150586178520001, 40.468055354441795 ], [ -112.153146201756996, 40.4684901888075 ], [ -112.156027619042007, 40.467235308331084 ], [ -112.156408473409002, 40.464132476669292 ], [ -112.160067897012993, 40.461014799186003 ], [ -112.165874381153003, 40.462451831556507 ], [ -112.171977994144001, 40.465497228466099 ], [ -112.172873500074999, 40.467070985871608 ], [ -112.179665207504002, 40.468141471794603 ], [ -112.189937250581011, 40.468563180441599 ], [ -112.19569747082501, 40.462265160753894 ], [ -112.206212687618006, 40.460633416986603 ], [ -112.209107823747004, 40.459296894101186 ], [ -112.212230753982993, 40.459288505390596 ], [ -112.214189234886007, 40.452315880882502 ], [ -112.212821359187004, 40.449042038761284 ], [ -112.213182625409999, 40.444803218958697 ], [ -112.210855899606003, 40.440387183910808 ], [ -112.209537157542997, 40.432266044445385 ], [ -112.204912231842997, 40.431080138167701 ], [ -112.202412398708006, 40.427741375998899 ], [ -112.198667984392003, 40.425663190665198 ], [ -112.198061895435004, 40.423394745709686 ], [ -112.194650232052012, 40.421114783946201 ], [ -112.195429737250009, 40.417539228033903 ], [ -112.197923654229001, 40.414937786190798 ], [ -112.198260942475002, 40.408703775182708 ], [ -112.199865646681005, 40.4035025385597 ], [ -112.198505958376998, 40.400259939790402 ], [ -112.200043418738005, 40.397587278771383 ], [ -112.199159153834998, 40.394901901908803 ], [ -112.199340038111998, 40.390819007450105 ], [ -112.201616871729996, 40.387998112116392 ], [ -112.19918040748, 40.382550511670495 ], [ -112.194422191740003, 40.379550252111208 ], [ -112.191052056781004, 40.374476970213195 ], [ -112.188708031687, 40.372469582534407 ], [ -112.190046755642996, 40.370563942318284 ], [ -112.193671267046994, 40.368040125523308 ], [ -112.194730693146994, 40.361335560878906 ], [ -112.193998294826002, 40.359874671044103 ], [ -112.188087180590998, 40.354890551421903 ], [ -112.185094438709996, 40.348002392915305 ], [ -112.181376834122005, 40.3458917941267 ], [ -112.178636215614006, 40.339627001036213 ], [ -112.175544806681003, 40.335843167119293 ], [ -112.179946833849996, 40.332140700028503 ], [ -112.183227709910994, 40.331872949385399 ], [ -112.190779240140003, 40.329520684969083 ], [ -112.196288087537994, 40.325842232561889 ], [ -112.192693223459997, 40.322897386414709 ], [ -112.193713659641006, 40.318350837576808 ], [ -112.196793056244999, 40.317111813123198 ], [ -112.197481024216003, 40.316082173094493 ], [ -112.198504073276993, 40.312305820307692 ], [ -112.197352461953002, 40.3088042387784 ], [ -112.198619770660997, 40.306935260411997 ], [ -112.195611731880007, 40.306187111476902 ], [ -112.192091986009999, 40.304106320982093 ], [ -112.189810317384996, 40.30014782868701 ], [ -112.19018097595702, 40.296125994264308 ], [ -112.187958918864993, 40.293869551207699 ], [ -112.187368081404003, 40.29204228013031 ], [ -112.188449784739007, 40.290324862890202 ], [ -112.186457774149005, 40.286745299846501 ], [ -112.188492083240007, 40.285620812254102 ], [ -112.188126135024007, 40.283264203001686 ], [ -112.189330330979004, 40.281161732450094 ], [ -112.188418129080006, 40.279450378802395 ], [ -112.189061647296995, 40.273547343695903 ], [ -112.191703840033995, 40.271632762232002 ], [ -112.191724075164004, 40.270105518689299 ], [ -112.192909198001018, 40.268944650883689 ], [ -112.192207922399007, 40.264505906637304 ], [ -112.186586232503998, 40.259104197116883 ], [ -112.183732420965995, 40.257966751016497 ], [ -112.183319739203995, 40.253178139332107 ], [ -112.184550148721002, 40.251251119712201 ], [ -112.183922276081006, 40.249969245440994 ], [ -112.179338145621003, 40.249371004678508 ], [ -112.178867515896002, 40.242236989373801 ], [ -112.179749404356016, 40.232426086585804 ], [ -112.176956879279999, 40.230004039050691 ], [ -112.176699943076002, 40.227722837941599 ], [ -112.175415992710995, 40.226542175770497 ], [ -112.170594545046001, 40.22571715836051 ], [ -112.170211292515006, 40.223594877794497 ], [ -112.168407170004002, 40.221541904218 ], [ -112.168972225144998, 40.219544276420699 ], [ -112.166944592373, 40.218154806044296 ], [ -112.163964053827002, 40.21841905869131 ], [ -112.161543468694006, 40.217064976134409 ], [ -112.156900153468996, 40.219408818853402 ], [ -112.153471285148001, 40.217843918179703 ], [ -112.154950933251996, 40.215009295557095 ], [ -112.152643108446995, 40.214397155464191 ], [ -112.149497348346998, 40.212179753580507 ], [ -112.150371796982, 40.211077353476391 ], [ -112.155710395620005, 40.208870978063203 ], [ -112.158552760087005, 40.206725406886797 ], [ -112.157347603690994, 40.203917591609098 ], [ -112.157706955338, 40.202594153549491 ], [ -112.139628152723006, 40.203234526495898 ], [ -112.005105411996993, 40.203234536457209 ], [ -111.831581189020994, 40.197959852803905 ], [ -111.835131278768003, 40.358398382849792 ], [ -111.835035787793998, 40.362606150106792 ], [ -111.833977213362004, 40.362624331948901 ], [ -111.833873445088003, 40.368319357829598 ], [ -111.836290718960001, 40.368403705075693 ], [ -111.835483451868001, 40.371362983539001 ], [ -111.833627560207006, 40.373963331230193 ], [ -111.831418910921002, 40.374815631421797 ], [ -111.831414613762021, 40.3771781988603 ], [ -111.828730636477019, 40.376618991908693 ], [ -111.828735247528996, 40.377446890749901 ], [ -111.826402522806006, 40.37745340632631 ], [ -111.826413404937995, 40.379732170375192 ], [ -111.827645006826998, 40.379728678367201 ], [ -111.828285738952019, 40.38166148653599 ], [ -111.826667078127016, 40.384361461922097 ], [ -111.825895851503006, 40.388699514250199 ], [ -111.821670109582001, 40.388097904675796 ], [ -111.821425789610998, 40.390234606042007 ], [ -111.822060051693995, 40.413572663179593 ], [ -111.825668607390995, 40.413595777140301 ], [ -111.825850538620998, 40.420792490649703 ], [ -111.830428921644994, 40.420779694299696 ], [ -111.830449100574, 40.424404499078499 ], [ -111.827343951499003, 40.424410193915001 ], [ -111.827327605723013, 40.427033268703603 ], [ -111.824856056642005, 40.427637596470611 ], [ -111.823001475810003, 40.426761002600891 ], [ -111.817280796532003, 40.430880999251201 ], [ -111.815278893698007, 40.431482940045697 ], [ -111.821182845601001, 40.4314420224418 ], [ -111.823490744113997, 40.436765858407995 ], [ -111.823314862776996, 40.438991334149399 ], [ -111.821226902421017, 40.439006725537801 ], [ -111.821258429816993, 40.446286917587294 ], [ -111.816507670809003, 40.446308771202801 ], [ -111.816520548758007, 40.453195187607911 ], [ -111.820346738427006, 40.451713238717105 ], [ -111.824014702821998, 40.459593343948093 ], [ -111.827116363738, 40.458898981777999 ], [ -111.837538807849995, 40.4588632257543 ], [ -111.837551218008002, 40.460829131617501 ], [ -111.849843810771006, 40.460784989566399 ], [ -111.849844389669002, 40.464501850756896 ], [ -111.872635221595004, 40.464517704685598 ], [ -111.872596248571014, 40.471740890284508 ], [ -111.882575623506014, 40.471832321340493 ] ] ] } },
{ "type": "Feature", "properties": { "name": "South" }, "geometry": { "type": "Polygon", "coordinates": [ [ [ -112.157706955338, 40.202594153549491 ], [ -112.160510949029003, 40.199250696199094 ], [ -112.159501393889002, 40.1979905199155 ], [ -112.156636153077002, 40.19696961636739 ], [ -112.154505382622006, 40.19740981567319 ], [ -112.148631320733003, 40.195684434395396 ], [ -112.148786537350006, 40.190610717476297 ], [ -112.146882265084002, 40.1894944409472 ], [ -112.150511015915001, 40.187688122970592 ], [ -112.150826826441005, 40.185522774508094 ], [ -112.152397484797007, 40.184628751312403 ], [ -112.153372414135006, 40.181853214590497 ], [ -112.152761362015994, 40.179061940484303 ], [ -112.146724053021018, 40.178356118817291 ], [ -112.145991897746995, 40.174282190187093 ], [ -112.144387143290004, 40.173487235300705 ], [ -112.144562431704998, 40.17238637558129 ], [ -112.145946893786999, 40.170908680503203 ], [ -112.150088306970005, 40.171700965716489 ], [ -112.155808930630997, 40.170387205183196 ], [ -112.155090870498, 40.168556490261494 ], [ -112.158082791276996, 40.165287781335707 ], [ -112.158696447645994, 40.163393304852399 ], [ -112.164635746035003, 40.161870610389798 ], [ -112.173568535274001, 40.155203664309902 ], [ -112.173972974121995, 40.153803132700197 ], [ -112.171750320713997, 40.149154353530101 ], [ -112.167780672499006, 40.146671868451094 ], [ -112.169949351563005, 40.143064291751898 ], [ -112.172430281104994, 40.140904001402497 ], [ -112.173031769721007, 40.135333787019107 ], [ -112.176335645687004, 40.131161411649288 ], [ -112.172981355345996, 40.12755478838119 ], [ -112.168192616530007, 40.126513975956492 ], [ -112.163774961170006, 40.123481784464403 ], [ -112.164170916654996, 40.118761438163702 ], [ -112.161426279034998, 40.117117772908792 ], [ -112.160824706872006, 40.114244429637509 ], [ -112.157584314258997, 40.114142626782701 ], [ -112.156209560861001, 40.113341018698605 ], [ -112.154882144319004, 40.108745997947899 ], [ -112.151029827787013, 40.107477999077496 ], [ -112.150984616854004, 40.105491892284896 ], [ -112.154187544199019, 40.102707666894602 ], [ -112.155187510223001, 40.099400281139182 ], [ -112.157013977100007, 40.098490125084503 ], [ -112.157945952627998, 40.089106592578595 ], [ -112.160786003492007, 40.087807846495899 ], [ -112.165159761116996, 40.087723389177306 ], [ -112.167266815950995, 40.086098510187504 ], [ -112.171421481712002, 40.085556547083705 ], [ -112.173008244043004, 40.0840404313589 ], [ -112.174660380318997, 40.081555127686698 ], [ -112.174071489197004, 40.079705171197098 ], [ -112.175972544269996, 40.077721848152706 ], [ -112.174381333517019, 40.074529759819704 ], [ -112.174038927629994, 40.07132229407479 ], [ -112.172261958240995, 40.069592472651898 ], [ -112.172174849811, 40.068273481541695 ], [ -112.173223959810997, 40.066199714678397 ], [ -112.176846749860005, 40.06616747175579 ], [ -112.178366123182997, 40.067237654045087 ], [ -112.179995857885999, 40.06722556873779 ], [ -112.181750750730998, 40.062581367537007 ], [ -112.183780956549995, 40.059970444439777 ], [ -112.182288542302004, 40.058759508331001 ], [ -112.181319117583001, 40.055580978791198 ], [ -112.178853086727997, 40.053651062466592 ], [ -112.177649132344996, 40.051136172462797 ], [ -112.177625196603003, 40.047361479867803 ], [ -112.171997411798998, 40.039783075550496 ], [ -112.173226956928005, 40.036292996924814 ], [ -112.174860240360999, 40.035506141151693 ], [ -112.173982717334994, 40.032861762831992 ], [ -112.177487548100004, 40.029821553444108 ], [ -112.176977416154003, 40.028439285897605 ], [ -112.178046860810994, 40.026567969569584 ], [ -112.177902913281002, 40.022627806364611 ], [ -112.176917583221993, 40.019502534356008 ], [ -112.179811653369995, 40.011661915048109 ], [ -112.174370471437001, 40.011049585874893 ], [ -112.173104141310006, 40.009283945976691 ], [ -112.170413835407999, 40.007829093990097 ], [ -112.167215471532998, 40.007491966147903 ], [ -112.163894700284999, 40.008223601030316 ], [ -112.160325213619018, 40.007002578180803 ], [ -112.155431787858006, 40.002087251738303 ], [ -112.154871672723999, 40.000480138112685 ], [ -112.150730968914999, 39.998066244183896 ], [ -112.150876226245003, 39.993460951990983 ], [ -112.141998225630005, 39.989647662804799 ], [ -112.141814805185007, 39.986370009412305 ], [ -112.136250763272002, 39.982442487480391 ], [ -112.135342450379994, 39.979572847729607 ], [ -112.132289376379006, 39.977305284728899 ], [ -112.124349781302001, 39.974112116283102 ], [ -112.109876799584015, 39.973810142249185 ], [ -112.109812707547007, 39.970571824191609 ], [ -112.104043000266998, 39.96531128545341 ], [ -112.102435333724998, 39.958893755941709 ], [ -112.098001691369006, 39.956922197718598 ], [ -112.095792807709998, 39.956794441797385 ], [ -112.094014152829999, 39.953910156700807 ], [ -112.096260412202994, 39.953451970596191 ], [ -112.097268170610008, 39.951315272779098 ], [ -112.102539785044002, 39.948265962526293 ], [ -112.10343244242101, 39.946996126647406 ], [ -112.103144005350018, 39.942521103968303 ], [ -112.105552107934002, 39.941236820394202 ], [ -112.106270192251998, 39.939310925706991 ], [ -112.105709884587, 39.937586427700104 ], [ -112.102511730201996, 39.934850937385903 ], [ -112.104319375705003, 39.930810941631307 ], [ -112.103602016338002, 39.928772589758807 ], [ -112.098881200966005, 39.928114680594497 ], [ -112.093290818420002, 39.930167668663408 ], [ -112.092121075026, 39.927624465449099 ], [ -112.088826548745004, 39.926497715471591 ], [ -112.087866550616994, 39.925362504224793 ], [ -112.085259163309004, 39.925499560468893 ], [ -112.085150274170999, 39.92304995933651 ], [ -112.082914011924998, 39.921485171708696 ], [ -112.083445791299994, 39.918475488366397 ], [ -112.080585456803007, 39.917020094699794 ], [ -112.081703529498995, 39.915203234807002 ], [ -112.081267627073004, 39.913153100246205 ], [ -112.078403888115005, 39.911463431054997 ], [ -112.072224267191999, 39.911322527962405 ], [ -112.069183505321007, 39.90838642748389 ], [ -112.062563104643004, 39.904685746233206 ], [ -112.062652944619003, 39.901414410053093 ], [ -112.061515757983017, 39.8986002903439 ], [ -112.05778294086501, 39.894710681348002 ], [ -112.053535814707999, 39.893487987461 ], [ -112.054509554073007, 39.891388887043895 ], [ -112.059567645483995, 39.887175795617601 ], [ -112.060405632921999, 39.884253496665593 ], [ -112.059142324004995, 39.880057506343398 ], [ -112.062224155738008, 39.878641824212508 ], [ -112.063416014344995, 39.876612725445092 ], [ -112.066393713867996, 39.875963713330407 ], [ -112.067000630926003, 39.874003022495593 ], [ -112.070590533795993, 39.869870516866598 ], [ -112.073046136889005, 39.869505454202795 ], [ -112.076232761796007, 39.866164854567799 ], [ -112.079096240712019, 39.866097704478697 ], [ -112.081231688516993, 39.865086747077697 ], [ -112.081498332891996, 39.862336294423898 ], [ -112.079486116780998, 39.857030287169195 ], [ -112.080579610569998, 39.853331517582497 ], [ -112.076948123727007, 39.852841825503411 ], [ -112.073997930659999, 39.847310163128 ], [ -112.075288503129002, 39.844996213927203 ], [ -112.075223403842003, 39.839699077293893 ], [ -112.070400017620997, 39.838045343508803 ], [ -112.069845537579994, 39.834698822675598 ], [ -112.065426207908004, 39.830045398644799 ], [ -112.068273754466006, 39.827537015737398 ], [ -112.069725436349003, 39.820176152957501 ], [ -112.071443566545994, 39.818331309060902 ], [ -112.071067446697995, 39.815176845236003 ], [ -112.072720277477998, 39.812147795514299 ], [ -112.075323116112003, 39.811317323030096 ], [ -112.07776729107502, 39.80915841836751 ], [ -112.077806722058995, 39.806446999477508 ], [ -112.080034291082995, 39.80210697925849 ], [ -112.077375604547001, 39.801279367544701 ], [ -112.07676781522602, 39.800131751145798 ], [ -112.081546817540996, 39.794266956321387 ], [ -112.087276907857017, 39.790631997575794 ], [ -112.087187678644, 39.786447764616902 ], [ -112.088666537481018, 39.785433807482598 ], [ -112.088185495760996, 39.784550850143098 ], [ -112.089800904870003, 39.781832737408095 ], [ -112.080697229140995, 39.781399809357687 ], [ -112.078694420150995, 39.778850635582401 ], [ -112.075105326514006, 39.778505528135703 ], [ -112.073848343875014, 39.779147856659399 ], [ -112.072425079325996, 39.778106864791901 ], [ -112.068513310759002, 39.777354585794697 ], [ -112.064322069623003, 39.781573677375199 ], [ -112.061295791196997, 39.782218569418902 ], [ -112.060354373351004, 39.781749652848106 ], [ -112.060218256496995, 39.780489515839292 ], [ -112.055703104759999, 39.777314155831391 ], [ -112.05258264055, 39.777135275050291 ], [ -112.050607493626003, 39.776252185919297 ], [ -112.047195344970007, 39.776855153630699 ], [ -112.044571677316995, 39.779797998776701 ], [ -112.044434162268999, 39.781515616974794 ], [ -112.041572862172998, 39.783433406827598 ], [ -112.037542069039006, 39.783307338362498 ], [ -112.032121982481996, 39.781251866688798 ], [ -112.030346549716, 39.781222594638194 ], [ -112.029228266513002, 39.782192070241202 ], [ -112.025996608612004, 39.782792814826095 ], [ -112.024774414895006, 39.786524692839691 ], [ -112.020090260073005, 39.786926359457901 ], [ -112.015843551618005, 39.791982112527499 ], [ -112.013615115990007, 39.792141252751698 ], [ -112.009775897056002, 39.795323674951803 ], [ -112.007522877249002, 39.794446777573498 ], [ -112.004682456235997, 39.795498530865189 ], [ -112.003409177532006, 39.797095285322705 ], [ -112.003079498296003, 39.800129955457301 ], [ -112.000627624057003, 39.801011567567699 ], [ -111.995180363841001, 39.801468364339698 ], [ -111.990547701614005, 39.805134475798098 ], [ -111.989439108960994, 39.811734645289505 ], [ -111.981948177310002, 39.809523296085501 ], [ -111.977559777031999, 39.807344827547503 ], [ -111.969478396636006, 39.807114406931397 ], [ -111.969100840080003, 39.808928544470398 ], [ -111.962726982007013, 39.81596425120491 ], [ -111.963918670742999, 39.817634695029703 ], [ -111.963146861588996, 39.823444350386602 ], [ -111.964787262515998, 39.825439014955009 ], [ -111.964170221152997, 39.827273142720095 ], [ -111.961451022123995, 39.829201291081901 ], [ -111.957699131026004, 39.836719497666287 ], [ -111.950426668245001, 39.834373681852803 ], [ -111.948921538386998, 39.836674501540003 ], [ -111.950016718455004, 39.838972054929194 ], [ -111.948010549936001, 39.844367333718097 ], [ -111.948290469464993, 39.848996092919897 ], [ -111.946669802645005, 39.850572533611697 ], [ -111.943498178463997, 39.851575939301696 ], [ -111.937102993313005, 39.855371358382797 ], [ -111.938166352785998, 39.85748457282051 ], [ -111.937763338753001, 39.85836628798031 ], [ -111.936247353037004, 39.859076794470397 ], [ -111.931906192911001, 39.863977048271202 ], [ -111.928095138168018, 39.864877051568897 ], [ -111.927585436008002, 39.867399367898898 ], [ -111.925215514559994, 39.870278907375692 ], [ -111.926607324296, 39.872826577205196 ], [ -111.921693861037994, 39.874487490470209 ], [ -111.922086054754999, 39.876268311072202 ], [ -111.921068134158006, 39.880159616506603 ], [ -111.915342304006003, 39.883660199998097 ], [ -111.912882498537002, 39.889013375424511 ], [ -111.909696374464005, 39.892187326669301 ], [ -111.909475311017999, 39.894576648649192 ], [ -111.904819395648005, 39.896224916642097 ], [ -111.902814098199997, 39.898511906986691 ], [ -111.900043705542998, 39.89865957899179 ], [ -111.896501734466014, 39.897407629068098 ], [ -111.891433159989006, 39.898122435176283 ], [ -111.890035036770996, 39.901718158937605 ], [ -111.884377074426993, 39.9038436053129 ], [ -111.881307752203, 39.907615032325808 ], [ -111.877891083460995, 39.906199388041003 ], [ -111.873535411377006, 39.907290927968404 ], [ -111.868316343334996, 39.906726474511601 ], [ -111.866209997200002, 39.905755657822496 ], [ -111.862921966420004, 39.909059728138992 ], [ -111.858401512596004, 39.910480782817899 ], [ -111.858572156557003, 39.915446986834304 ], [ -111.856209586713021, 39.914537499380899 ], [ -111.851024391440006, 39.916112201946603 ], [ -111.845972282052998, 39.919171945003399 ], [ -111.844774458865004, 39.922153896547407 ], [ -111.841046022792, 39.923804059227699 ], [ -111.838706992420995, 39.923098919433293 ], [ -111.836653259957004, 39.9241691844786 ], [ -111.833313306833006, 39.924133386993603 ], [ -111.831784391875004, 39.930417342843008 ], [ -111.832628809170998, 39.936761359568891 ], [ -111.830562683432007, 39.939144519976999 ], [ -111.827526377702, 39.946327935553903 ], [ -111.824840415628998, 39.947670868130693 ], [ -111.823711049343004, 39.947496679157297 ], [ -111.820537483568003, 39.943332068182592 ], [ -111.813164038508006, 39.9410751233331 ], [ -111.808680000870993, 39.938498168298594 ], [ -111.805371060865994, 39.934795672257899 ], [ -111.800100589411997, 39.932462599129494 ], [ -111.794360267602002, 39.93096140214071 ], [ -111.792052845390003, 39.927242642156997 ], [ -111.788566471014008, 39.92579781418339 ], [ -111.786222043031003, 39.921358403154009 ], [ -111.787060931165996, 39.917464992759108 ], [ -111.789072525226018, 39.915343032129599 ], [ -111.787270897902999, 39.912810013826999 ], [ -111.787031436175994, 39.909266286806798 ], [ -111.782161734751995, 39.90748376220089 ], [ -111.783088478834003, 39.904107842259002 ], [ -111.781746480294998, 39.901828406532807 ], [ -111.778208087227, 39.8992708953961 ], [ -111.774811208328003, 39.899388244071702 ], [ -111.768399357369006, 39.898210076799003 ], [ -111.762715929920006, 39.894661686988492 ], [ -111.761231804073006, 39.892144181855208 ], [ -111.757542621048003, 39.890117701124687 ], [ -111.756949786780993, 39.888856591231395 ], [ -111.758720813268013, 39.887606165861698 ], [ -111.761000148324996, 39.883888187804899 ], [ -111.758366242944007, 39.880477194430902 ], [ -111.757647847626004, 39.876301318475001 ], [ -111.756684321706999, 39.875348058989687 ], [ -111.752132572666994, 39.874012672010501 ], [ -111.750995240216, 39.871587378864596 ], [ -111.747549774158003, 39.870339245471293 ], [ -111.746824102313994, 39.869195161963006 ], [ -111.738065147602001, 39.864178667045195 ], [ -111.736667736355997, 39.859236619598001 ], [ -111.734610811142005, 39.856560211964798 ], [ -111.734154473065999, 39.853779043222701 ], [ -111.737693802932995, 39.851337431108398 ], [ -111.743449972899995, 39.8512466231467 ], [ -111.746695341340001, 39.84987429336649 ], [ -111.747146310462995, 39.846078220813993 ], [ -111.750118775339999, 39.8410315094617 ], [ -111.748391764429996, 39.834290631462494 ], [ -111.748908102326993, 39.832871840457209 ], [ -111.755705873075001, 39.827728140347794 ], [ -111.758480745141, 39.824497991857911 ], [ -111.763998374270997, 39.816789828020305 ], [ -111.766342607154002, 39.810625079032405 ], [ -111.754676713703006, 39.812271797380092 ], [ -111.621845039990006, 39.813167484285806 ], [ -111.528310489467998, 39.812952339714798 ], [ -111.528368060599007, 39.81203323418211 ], [ -111.507978435734017, 39.81203662254709 ], [ -111.173036947661998, 39.813068628770402 ], [ -111.079063463823999, 39.812237266851206 ], [ -111.079062600170005, 39.8141338921426 ], [ -111.06578966946401, 39.814144428173798 ], [ -110.85779081413402, 39.813020937893903 ], [ -110.857657981874993, 39.899713323840899 ], [ -111.083102106669998, 39.9000588674581 ], [ -111.083000611279999, 39.931598572015595 ], [ -111.082119390982001, 39.933599399809893 ], [ -111.082688052446997, 39.939315778123508 ], [ -111.091661622377998, 39.940710070107109 ], [ -111.097406617271005, 39.943310144957891 ], [ -111.105648782748005, 39.944302125188401 ], [ -111.107782879873, 39.942912637108897 ], [ -111.117955545859999, 39.943312685072698 ], [ -111.119562547346007, 39.945239154951409 ], [ -111.125883995595004, 39.945417166420398 ], [ -111.128034769213016, 39.946896937176703 ], [ -111.131243179269006, 39.9473933981578 ], [ -111.129383462692999, 39.951328300555502 ], [ -111.123535793138004, 39.954519669286896 ], [ -111.122789311852003, 39.956079169818707 ], [ -111.120232989062998, 39.957104469146685 ], [ -111.120858077240001, 39.959703165335796 ], [ -111.118050426825008, 39.961737782143693 ], [ -111.119198321869007, 39.964696345898403 ], [ -111.119010699163994, 39.967913056222002 ], [ -111.124050479597997, 39.970475579555604 ], [ -111.129560114154003, 39.970496582295205 ], [ -111.130015372727996, 39.972829622211201 ], [ -111.133249314332005, 39.973780993179304 ], [ -111.135034000941005, 39.97615302046011 ], [ -111.133697347113994, 39.978339454835101 ], [ -111.134261732430005, 39.979483051244095 ], [ -111.141685276128996, 39.9843665514422 ], [ -111.143043463251004, 39.986955206087302 ], [ -111.146917004418, 39.985355623842601 ], [ -111.151875268111993, 39.984966315903094 ], [ -111.156549754816993, 39.990100197806598 ], [ -111.159558190176, 39.991793544091109 ], [ -111.160946739577994, 39.991995246027599 ], [ -111.165170626432996, 39.99001165028789 ], [ -111.167814011087003, 39.9908322511452 ], [ -111.167420799867003, 39.992900571148802 ], [ -111.170149607127016, 39.999766572031291 ], [ -111.167961403468993, 40.003184476009196 ], [ -111.169346653068999, 40.00431769393991 ], [ -111.169369503270005, 40.00645298047111 ], [ -111.170860883795996, 40.007824783762402 ], [ -111.171664696673005, 40.010657172552307 ], [ -111.174885148550004, 40.012283127602501 ], [ -111.177097756725004, 40.016063872861295 ], [ -111.186629553597996, 40.020112320077899 ], [ -111.189626551911999, 40.023278890937497 ], [ -111.191402309241994, 40.029681906660507 ], [ -111.194776257391993, 40.031225961323493 ], [ -111.196932190892994, 40.031006083582191 ], [ -111.198076645314998, 40.031598776218409 ], [ -111.201240260009996, 40.037264957100291 ], [ -111.199335528149007, 40.039281925091508 ], [ -111.198674629720003, 40.04177875571169 ], [ -111.201660852247997, 40.042764667203897 ], [ -111.203939854902998, 40.046360063441391 ], [ -111.203860560775993, 40.049256827800107 ], [ -111.205852647255, 40.047392798876508 ], [ -111.213902030536005, 40.043711261892504 ], [ -111.216296052220002, 40.040828209987303 ], [ -111.225913328502998, 40.037061810587296 ], [ -111.229212580839004, 40.036960729146102 ], [ -111.231834031157007, 40.035734695023095 ], [ -111.238084111109998, 40.038524048781007 ], [ -111.240823289431006, 40.043802592561399 ], [ -111.245910063812005, 40.046832688810497 ], [ -111.246256804591994, 40.051971993359103 ], [ -111.249229676235004, 40.055419957828086 ], [ -111.246857591265993, 40.059264069254084 ], [ -111.243896422969001, 40.060756940496198 ], [ -111.241741110172995, 40.063032801354694 ], [ -111.241071408265, 40.0659839691305 ], [ -111.235923978629998, 40.069517352359 ], [ -111.238508911840015, 40.072629408705687 ], [ -111.240657845135004, 40.073422321008501 ], [ -111.237989976467006, 40.080212114337101 ], [ -111.239908105298014, 40.083685887651185 ], [ -111.242344165977002, 40.085960260451593 ], [ -111.241766474109994, 40.091763683144691 ], [ -111.237190433584999, 40.094849937261607 ], [ -111.234526330788995, 40.101369329986603 ], [ -111.236024145333005, 40.103623200200502 ], [ -111.229881515903998, 40.106969116109099 ], [ -111.229182154211998, 40.110101345757307 ], [ -111.227086345068997, 40.113240820674399 ], [ -111.225810801109006, 40.119626623445988 ], [ -111.223197642295005, 40.121173232123297 ], [ -111.223142542467002, 40.123704135293892 ], [ -111.221434315968011, 40.124968757713191 ], [ -111.222328359871, 40.125963506277593 ], [ -111.221901086968003, 40.128112212986892 ], [ -111.222992742989007, 40.131736476029687 ], [ -111.224124244888003, 40.133162312020907 ], [ -111.223654061188, 40.138330214509708 ], [ -111.225442117301, 40.141241344667392 ], [ -111.225408728622995, 40.143926261416617 ], [ -111.231475442716004, 40.147955083046099 ], [ -111.230831779064999, 40.150298853200496 ], [ -111.227957707106995, 40.152786679215097 ], [ -111.226729058934012, 40.155812696818693 ], [ -111.227263188338995, 40.157536077135703 ], [ -111.229104455238996, 40.1586135941251 ], [ -111.225530295116016, 40.164354282077191 ], [ -111.225433431370007, 40.167022193615296 ], [ -111.230472368443003, 40.170747623681997 ], [ -111.231384510815005, 40.173051341459903 ], [ -111.235252830332996, 40.17598965890469 ], [ -111.234876605264006, 40.179287905762095 ], [ -111.235905134801996, 40.181203938385991 ], [ -111.239017524152004, 40.1827751194513 ], [ -111.239828862918003, 40.184678952605395 ], [ -111.246594664743014, 40.19106598691809 ], [ -111.248002748754004, 40.193833396196915 ], [ -111.250706670192002, 40.194638425976692 ], [ -111.611971717128014, 40.192200067927807 ], [ -111.610492647499001, 40.1870643976794 ], [ -111.613841692357994, 40.187067100199492 ], [ -111.613982232726997, 40.185808649946793 ], [ -111.620409662301, 40.186519493724106 ], [ -111.624418322579004, 40.194088104873302 ], [ -111.643995473258016, 40.194278232850792 ], [ -111.656023025698005, 40.195432392795993 ], [ -111.723816460025006, 40.1953212667702 ], [ -111.831581189020994, 40.197959852803905 ], [ -112.005105411996993, 40.203234536457209 ], [ -112.139628152723006, 40.203234526495898 ], [ -112.157706955338, 40.202594153549491 ] ] ] } },
{ "type": "Feature", "properties": { "name": "Central" }, "geometry": { "type": "Polygon", "coordinates": [ [ [ -111.831581189020994, 40.197959852803905 ], [ -111.723816460025006, 40.1953212667702 ], [ -111.656023025698005, 40.195432392795993 ], [ -111.643995473258016, 40.194278232850792 ], [ -111.624418322579004, 40.194088104873302 ], [ -111.620409662301, 40.186519493724106 ], [ -111.613982232726997, 40.185808649946793 ], [ -111.613841692357994, 40.187067100199492 ], [ -111.610492647499001, 40.1870643976794 ], [ -111.611971717128014, 40.192200067927807 ], [ -111.250706670192002, 40.194638425976692 ], [ -111.253024904119002, 40.19660195464791 ], [ -111.258174649428, 40.197896959306007 ], [ -111.256406908805005, 40.201148804743404 ], [ -111.260244809583995, 40.204649429726103 ], [ -111.263897234710001, 40.205672745085593 ], [ -111.265044037533997, 40.2089811031653 ], [ -111.263972321018002, 40.211398088196198 ], [ -111.267364189860999, 40.2132958027331 ], [ -111.273498790252006, 40.2221107298638 ], [ -111.271747693991003, 40.228029547870101 ], [ -111.272621101530007, 40.231856501810903 ], [ -111.273889375452015, 40.233002208230602 ], [ -111.273655066941004, 40.236120022928496 ], [ -111.267487173950997, 40.237098449656209 ], [ -111.265590026507994, 40.238967766906796 ], [ -111.264838747368003, 40.242271438101007 ], [ -111.271649987375994, 40.250643405212706 ], [ -111.276713657097005, 40.252518876673406 ], [ -111.278939979734005, 40.256347027986195 ], [ -111.279015148162003, 40.258901907214891 ], [ -111.282243617808021, 40.260424772028301 ], [ -111.28694218713801, 40.264715194765799 ], [ -111.289894580755004, 40.266203391841586 ], [ -111.294231633959996, 40.265575302955504 ], [ -111.294354210300995, 40.270791413938994 ], [ -111.296190449256997, 40.271115570128586 ], [ -111.297910403950993, 40.273079700779697 ], [ -111.302538192163993, 40.272946067632802 ], [ -111.305597368096997, 40.274483132540595 ], [ -111.307968021158999, 40.274602978404303 ], [ -111.309015826866997, 40.276104747737591 ], [ -111.306984729358007, 40.282154523926891 ], [ -111.307656252943005, 40.283671715252602 ], [ -111.310182701309003, 40.2856335104224 ], [ -111.314995190439006, 40.287602563608402 ], [ -111.321672612040999, 40.287318417133086 ], [ -111.325491930395998, 40.282771534972504 ], [ -111.328518704249007, 40.2822764767051 ], [ -111.330841323886006, 40.284544716583497 ], [ -111.337189464622995, 40.288382384937691 ], [ -111.340002573913011, 40.288648937207491 ], [ -111.346065804689999, 40.287198479158306 ], [ -111.352331466088998, 40.289666142391397 ], [ -111.35655814963701, 40.288234226815902 ], [ -111.360820930854999, 40.288757065902196 ], [ -111.368757549910001, 40.29223666982319 ], [ -111.374054951220998, 40.297043249955799 ], [ -111.377263828463001, 40.297506721621708 ], [ -111.380362449645006, 40.296136169911698 ], [ -111.381512468894996, 40.2945467458498 ], [ -111.385624979678994, 40.295645760929503 ], [ -111.387946656905996, 40.295277627175501 ], [ -111.392529037477004, 40.296217158084595 ], [ -111.394184173694001, 40.295549347760584 ], [ -111.396936896441005, 40.292445238841097 ], [ -111.399667226665002, 40.293571012797102 ], [ -111.402499548150999, 40.296007221261796 ], [ -111.410316435686994, 40.295150906540805 ], [ -111.412850594429003, 40.290668771110298 ], [ -111.412731566724005, 40.289475461859489 ], [ -111.417629991134007, 40.289205623979491 ], [ -111.418901444458001, 40.288390189503303 ], [ -111.426439873702009, 40.287015758072499 ], [ -111.428615633690001, 40.287841081071903 ], [ -111.433659326113002, 40.291921521834198 ], [ -111.437831439901004, 40.291212093553298 ], [ -111.440000733839, 40.290091214990902 ], [ -111.444037594036999, 40.290314538668902 ], [ -111.445581442496021, 40.291610447984006 ], [ -111.451592911614, 40.293289898796885 ], [ -111.452590787310001, 40.295605894757692 ], [ -111.451971707992001, 40.297166921943308 ], [ -111.454679628367003, 40.298295988185309 ], [ -111.457372184622002, 40.3006232849513 ], [ -111.450395550896019, 40.305218363362698 ], [ -111.448016690797004, 40.309398895082985 ], [ -111.442791492677017, 40.313896621644503 ], [ -111.442841248407007, 40.317009133015695 ], [ -111.441248195759002, 40.319988276063093 ], [ -111.438231805944994, 40.320400655114391 ], [ -111.437887741330997, 40.321618208036604 ], [ -111.444550055305996, 40.326137965164001 ], [ -111.444880742210003, 40.329172811301092 ], [ -111.449612234232006, 40.331717647260305 ], [ -111.453645844654005, 40.337233569496689 ], [ -111.456438417436999, 40.338452343612502 ], [ -111.460132561121, 40.343253136952498 ], [ -111.474137232459995, 40.349867900466101 ], [ -111.477005786854008, 40.355058920396907 ], [ -111.479274198511007, 40.356099114227803 ], [ -111.481138286980993, 40.359063506846397 ], [ -111.483973483014012, 40.3611066745598 ], [ -111.493419005685013, 40.356273873397093 ], [ -111.496384219955999, 40.351923258380992 ], [ -111.501522547155005, 40.352477680761503 ], [ -111.506461431728994, 40.354694943548402 ], [ -111.507701600309019, 40.355968812416378 ], [ -111.510762669833994, 40.356018398314291 ], [ -111.512857388542997, 40.357220865541294 ], [ -111.517567717884006, 40.357947645206607 ], [ -111.522064465495006, 40.3569274152904 ], [ -111.522311326324996, 40.356106464785697 ], [ -111.524119501656003, 40.355409081268299 ], [ -111.528890893373003, 40.355662141913108 ], [ -111.533348973588005, 40.355006522252509 ], [ -111.536111618244007, 40.35514690577849 ], [ -111.537456130208994, 40.356883942760795 ], [ -111.542650126761998, 40.359152525952993 ], [ -111.546219286400998, 40.357784348044902 ], [ -111.549789255541995, 40.357548509864891 ], [ -111.553800281828998, 40.3559509654281 ], [ -111.556172063044002, 40.355808951333501 ], [ -111.601136358608997, 40.334025772117492 ], [ -111.636328964266994, 40.333940134428097 ], [ -111.720181959903002, 40.333691478952495 ], [ -111.720102441446002, 40.3298433461702 ], [ -111.722414059358996, 40.329832372130006 ], [ -111.720574844395003, 40.326408425950895 ], [ -111.739112716964996, 40.326280224935402 ], [ -111.739194501490999, 40.329935532798913 ], [ -111.746326452948011, 40.329892169152394 ], [ -111.746355188218999, 40.331047318733908 ], [ -111.753484884402994, 40.331013618190198 ], [ -111.75353609429402, 40.333458550062197 ], [ -111.760113683205006, 40.333383349361192 ], [ -111.763453206259996, 40.331841152084301 ], [ -111.761671837945997, 40.329714932853911 ], [ -111.761941859423999, 40.326216698245197 ], [ -111.762658167842005, 40.32611504002751 ], [ -111.834435442643993, 40.326572021392693 ], [ -111.831581189020994, 40.197959852803905 ] ] ] } },
{ "type": "Feature", "properties": { "name": "North" }, "geometry": { "type": "Polygon", "coordinates": [ [ [ -111.556172063044002, 40.355808951333501 ], [ -111.555672702439011, 40.366705240884102 ], [ -111.562747624960011, 40.374741431902109 ], [ -111.562566505316994, 40.379874822576198 ], [ -111.571719953751995, 40.3931048812508 ], [ -111.57188448963602, 40.397232944682102 ], [ -111.573486625179996, 40.399959274247102 ], [ -111.572065553398005, 40.405398802424408 ], [ -111.574167998356003, 40.410113651261 ], [ -111.580989109675002, 40.4166291812571 ], [ -111.585407086160004, 40.417742040005308 ], [ -111.585922289181994, 40.4200637704024 ], [ -111.588247948697997, 40.421142960379285 ], [ -111.589436623368002, 40.424302692518594 ], [ -111.591511230731001, 40.426305622363493 ], [ -111.592494446025, 40.430206014253699 ], [ -111.595285868112995, 40.432579073497493 ], [ -111.599974216199996, 40.434784576621993 ], [ -111.607937538726006, 40.431409627409991 ], [ -111.610586962962003, 40.43092268983839 ], [ -111.612463274373994, 40.431899255633397 ], [ -111.617777631409993, 40.438681813769691 ], [ -111.617889230253994, 40.439924464013693 ], [ -111.615741859050004, 40.44364764215959 ], [ -111.61736881309001, 40.447481313718505 ], [ -111.618490949190004, 40.448970812670503 ], [ -111.620963270605998, 40.449803505125203 ], [ -111.619426019843004, 40.453200043067305 ], [ -111.620330029585006, 40.455321321694299 ], [ -111.614802535633999, 40.457675176748609 ], [ -111.614465184574001, 40.459483276030497 ], [ -111.609835240037, 40.463327612174702 ], [ -111.609449462314998, 40.466320633754385 ], [ -111.606574030025996, 40.467277199053193 ], [ -111.597086315259006, 40.466840113464301 ], [ -111.595083288428, 40.467629721358598 ], [ -111.584198837165999, 40.476978021162893 ], [ -111.58387326256701, 40.479569748798703 ], [ -111.578855356467997, 40.481878765395393 ], [ -111.578251660364998, 40.483710609682397 ], [ -111.574838920220998, 40.4868267209674 ], [ -111.574519920922995, 40.493003953966486 ], [ -111.575827088598004, 40.495452390011991 ], [ -111.578102302993003, 40.497242822490001 ], [ -111.579143064697007, 40.500251106100301 ], [ -111.575414252780007, 40.503071515340999 ], [ -111.57537492547101, 40.516422954291791 ], [ -111.571586835589997, 40.520031809938097 ], [ -111.56978447063301, 40.526058667689504 ], [ -111.570972553142994, 40.532503180373794 ], [ -111.570298698120993, 40.534492970827394 ], [ -111.572631839479996, 40.537400313842895 ], [ -111.570832159293005, 40.539611893289091 ], [ -111.571137561382997, 40.54359231242109 ], [ -111.567755495548994, 40.547239560970702 ], [ -111.570141220145999, 40.550736770154799 ], [ -111.571988979912007, 40.551362762587807 ], [ -111.575250767094005, 40.554364539249903 ], [ -111.578982506724003, 40.559782746285997 ], [ -111.581632061302997, 40.566345899338693 ], [ -111.590861062586001, 40.572046705528102 ], [ -111.593717403680003, 40.577087816760994 ], [ -111.598349147481002, 40.577908946399901 ], [ -111.602114110095997, 40.575475018320908 ], [ -111.602708770819007, 40.573805283977499 ], [ -111.602081163147005, 40.5692951311146 ], [ -111.605784231987002, 40.56438847649251 ], [ -111.610978175246998, 40.565928662539605 ], [ -111.612637847858011, 40.565273038362093 ], [ -111.620264741594994, 40.565189999106501 ], [ -111.633499720290999, 40.5674136318842 ], [ -111.635132923916018, 40.568226269639801 ], [ -111.637802247893006, 40.568045800685205 ], [ -111.641713238568002, 40.562432359429295 ], [ -111.644981279058996, 40.560782659800402 ], [ -111.646314519615999, 40.556323939988694 ], [ -111.648698337379017, 40.554149357298293 ], [ -111.650151792518997, 40.551290787083595 ], [ -111.656736501482015, 40.551808489764802 ], [ -111.661393681678007, 40.550033304877601 ], [ -111.661261877678996, 40.547319691977599 ], [ -111.663987158845998, 40.541296954757783 ], [ -111.672685191179994, 40.537842191404607 ], [ -111.675436524356996, 40.533024412991303 ], [ -111.678327463957004, 40.531786774954 ], [ -111.681348558213003, 40.532918531653493 ], [ -111.684880745143005, 40.531356230892293 ], [ -111.698227773111995, 40.535714113947591 ], [ -111.701424110123995, 40.533673165300193 ], [ -111.713192526496996, 40.532666904922394 ], [ -111.716375435675999, 40.527647294509897 ], [ -111.720567093444998, 40.525149196924993 ], [ -111.723743330790995, 40.526397794843007 ], [ -111.726802580292997, 40.529265032864998 ], [ -111.732297482112017, 40.5302492404048 ], [ -111.733927459358995, 40.532364088015697 ], [ -111.735117720103005, 40.532697056135795 ], [ -111.736298254730002, 40.531924687395801 ], [ -111.736772842597006, 40.528900991971092 ], [ -111.739643374137998, 40.524207953326894 ], [ -111.743830901267003, 40.522501819667696 ], [ -111.747404048324995, 40.524382336147816 ], [ -111.750378044876001, 40.52428738663 ], [ -111.755370440305995, 40.526367435494691 ], [ -111.757786829544997, 40.528539864553608 ], [ -111.76256037572, 40.529180519758697 ], [ -111.763747973988998, 40.527191629132282 ], [ -111.769634281622999, 40.522624720297003 ], [ -111.775396687007003, 40.521306937143002 ], [ -111.780718304380997, 40.518951322483396 ], [ -111.781182625138001, 40.517154519830406 ], [ -111.783522376229996, 40.514932407385807 ], [ -111.787918107403996, 40.513712446839897 ], [ -111.789056551234012, 40.509127271729291 ], [ -111.791682738776004, 40.505212970756283 ], [ -111.789085372835004, 40.501717271705097 ], [ -111.789566400203, 40.497850975039995 ], [ -111.803083284794994, 40.493419557425099 ], [ -111.803748038494021, 40.49182096365579 ], [ -111.805378483726003, 40.491615814302492 ], [ -111.808763829130996, 40.488754116356802 ], [ -111.811320838081997, 40.488302556929312 ], [ -111.816314196853, 40.489166956318194 ], [ -111.822416947731995, 40.486335976366895 ], [ -111.826318424378002, 40.486335624162301 ], [ -111.826321521587005, 40.482730240954695 ], [ -111.833326416022004, 40.482724178777303 ], [ -111.833314999497006, 40.481791570665905 ], [ -111.834788765515995, 40.481775979209004 ], [ -111.834506358343006, 40.479481818246896 ], [ -111.836316285235, 40.477583454820206 ], [ -111.836227040665008, 40.474916652307193 ], [ -111.842142205002006, 40.474283890291801 ], [ -111.843734357044994, 40.476689818161702 ], [ -111.846159466360007, 40.476617945320996 ], [ -111.850118747829001, 40.474903955585503 ], [ -111.851351205610001, 40.471496363927798 ], [ -111.856053586546011, 40.471558117060809 ], [ -111.857614092099993, 40.469412336267595 ], [ -111.860436547511014, 40.470327654831792 ], [ -111.862982865839001, 40.469257061822795 ], [ -111.868327200227, 40.472525975261092 ], [ -111.870669119157, 40.476832656263603 ], [ -111.872562177047996, 40.476344513742092 ], [ -111.873218092681, 40.477051552533297 ], [ -111.882575623506014, 40.471832321340493 ], [ -111.872596248571014, 40.471740890284508 ], [ -111.872635221595004, 40.464517704685598 ], [ -111.849844389669002, 40.464501850756896 ], [ -111.849843810771006, 40.460784989566399 ], [ -111.837551218008002, 40.460829131617501 ], [ -111.837538807849995, 40.4588632257543 ], [ -111.827116363738, 40.458898981777999 ], [ -111.824014702821998, 40.459593343948093 ], [ -111.820346738427006, 40.451713238717105 ], [ -111.816520548758007, 40.453195187607911 ], [ -111.816507670809003, 40.446308771202801 ], [ -111.821258429816993, 40.446286917587294 ], [ -111.821226902421017, 40.439006725537801 ], [ -111.823314862776996, 40.438991334149399 ], [ -111.823490744113997, 40.436765858407995 ], [ -111.821182845601001, 40.4314420224418 ], [ -111.815278893698007, 40.431482940045697 ], [ -111.817280796532003, 40.430880999251201 ], [ -111.823001475810003, 40.426761002600891 ], [ -111.824856056642005, 40.427637596470611 ], [ -111.827327605723013, 40.427033268703603 ], [ -111.827343951499003, 40.424410193915001 ], [ -111.830449100574, 40.424404499078499 ], [ -111.830428921644994, 40.420779694299696 ], [ -111.825850538620998, 40.420792490649703 ], [ -111.825668607390995, 40.413595777140301 ], [ -111.822060051693995, 40.413572663179593 ], [ -111.821425789610998, 40.390234606042007 ], [ -111.821670109582001, 40.388097904675796 ], [ -111.825895851503006, 40.388699514250199 ], [ -111.826667078127016, 40.384361461922097 ], [ -111.828285738952019, 40.38166148653599 ], [ -111.827645006826998, 40.379728678367201 ], [ -111.826413404937995, 40.379732170375192 ], [ -111.826402522806006, 40.37745340632631 ], [ -111.828735247528996, 40.377446890749901 ], [ -111.828730636477019, 40.376618991908693 ], [ -111.831414613762021, 40.3771781988603 ], [ -111.831418910921002, 40.374815631421797 ], [ -111.833627560207006, 40.373963331230193 ], [ -111.835483451868001, 40.371362983539001 ], [ -111.836290718960001, 40.368403705075693 ], [ -111.833873445088003, 40.368319357829598 ], [ -111.833977213362004, 40.362624331948901 ], [ -111.835035787793998, 40.362606150106792 ], [ -111.835131278768003, 40.358398382849792 ], [ -111.834435442643993, 40.326572021392693 ], [ -111.762658167842005, 40.32611504002751 ], [ -111.761941859423999, 40.326216698245197 ], [ -111.761671837945997, 40.329714932853911 ], [ -111.763453206259996, 40.331841152084301 ], [ -111.760113683205006, 40.333383349361192 ], [ -111.75353609429402, 40.333458550062197 ], [ -111.753484884402994, 40.331013618190198 ], [ -111.746355188218999, 40.331047318733908 ], [ -111.746326452948011, 40.329892169152394 ], [ -111.739194501490999, 40.329935532798913 ], [ -111.739112716964996, 40.326280224935402 ], [ -111.720574844395003, 40.326408425950895 ], [ -111.722414059358996, 40.329832372130006 ], [ -111.720102441446002, 40.3298433461702 ], [ -111.720181959903002, 40.333691478952495 ], [ -111.636328964266994, 40.333940134428097 ], [ -111.601136358608997, 40.334025772117492 ], [ -111.556172063044002, 40.355808951333501 ] ] ] } }
]
}
