{
"type": "FeatureCollection",
"name": "workshop_boundaries",
"crs": { "type": "name", "properties": { "name": "urn:ogc:def:crs:OGC:1.3:CRS84" } },
"features": [
{ "type": "Feature", "properties": { "name": "Southwest Salt Lake Co." }, "geometry": { "type": "Polygon", "coordinates": [ [ [ -111.912377779693998, 40.682217230726593 ], [ -111.913462935574003, 40.683241661250293 ], [ -111.915222939133002, 40.682946024878795 ], [ -111.917351820592003, 40.683723503292697 ], [ -111.916819967639, 40.685179727807594 ], [ -111.917480990244997, 40.685583374227399 ], [ -111.921090353682999, 40.686328468396802 ], [ -111.937487257648996, 40.682265599077603 ], [ -111.958047396612002, 40.68214338516681 ], [ -111.957976985760993, 40.66763658835719 ], [ -111.981664442299007, 40.667570762784599 ], [ -111.987949143164002, 40.66757201787749 ], [ -112.003968134871997, 40.667365998348309 ], [ -112.005510399382999, 40.667373657027596 ], [ -112.005657346695003, 40.667578942692295 ], [ -112.005653427346004, 40.66726295700159 ], [ -112.006926823396995, 40.667352483911593 ], [ -112.007347708362005, 40.66748240949719 ], [ -112.007905824462, 40.667580325883499 ], [ -112.015174741110997, 40.667582402714508 ], [ -112.01992857978, 40.667579782827687 ], [ -112.024685841928999, 40.667584503393584 ], [ -112.024837181104999, 40.653055789512393 ], [ -112.025737829313996, 40.653058512198207 ], [ -112.024823730630004, 40.65117951493081 ], [ -112.024816814052002, 40.650248193822797 ], [ -112.025761431649997, 40.650251413815496 ], [ -112.026849715463996, 40.650390832635203 ], [ -112.027026497622998, 40.652918054174798 ], [ -112.029857575072, 40.6530707564458 ], [ -112.034244364812011, 40.653088029649993 ], [ -112.034207331763994, 40.645802234915195 ], [ -112.038712909327003, 40.645799717775702 ], [ -112.039014849262998, 40.645799523520402 ], [ -112.039399968704004, 40.646655294367598 ], [ -112.041859630511993, 40.646653306173199 ], [ -112.042959543017005, 40.646652475316394 ], [ -112.043351869641, 40.644891990726201 ], [ -112.043254464415995, 40.644841881704188 ], [ -112.043550557219021, 40.642181137843693 ], [ -112.037161791919004, 40.6421705943212 ], [ -112.037172591464994, 40.638544004998494 ], [ -112.034171686613007, 40.638551101199496 ], [ -112.024554623219018, 40.638557195342493 ], [ -112.024576142361994, 40.631278514026704 ], [ -112.030943289703998, 40.631380847398191 ], [ -112.033893794576997, 40.6313773500477 ], [ -112.043722037522002, 40.631235508125698 ], [ -112.043705642369005, 40.623891498375002 ], [ -112.057925925706002, 40.623869948049105 ], [ -112.058358097105, 40.631207576977403 ], [ -112.061908435839001, 40.631185107290598 ], [ -112.068365679712997, 40.631214656232707 ], [ -112.068259933630998, 40.624141265373993 ], [ -112.073191944154004, 40.624210039703101 ], [ -112.073130002620019, 40.617067613575699 ], [ -112.082583562750997, 40.6169462280304 ], [ -112.082555673654994, 40.609725738792001 ], [ -112.072095343737018, 40.609612966108195 ], [ -112.072628617825998, 40.606400228615897 ], [ -112.071725987932993, 40.603171002677996 ], [ -112.072140070854999, 40.600372621368898 ], [ -112.075895674630999, 40.595255365584585 ], [ -112.075007016236, 40.595251749019098 ], [ -112.075671516222002, 40.580759131025701 ], [ -112.081571007814006, 40.573511712547294 ], [ -112.081691356909005, 40.566187893913408 ], [ -112.091838632036001, 40.566192424432494 ], [ -112.091891707198002, 40.567437791026506 ], [ -112.100621882777006, 40.57080762009511 ], [ -112.106299602782997, 40.566197081197195 ], [ -112.105139710665, 40.563833939644702 ], [ -112.103857141915995, 40.563782355811703 ], [ -112.102972862808002, 40.562713523266702 ], [ -112.099341293017005, 40.562296681639317 ], [ -112.094552829682996, 40.562759382211503 ], [ -112.094540023299999, 40.564275440843602 ], [ -112.093649453289999, 40.564286259395899 ], [ -112.093649784769013, 40.565642431226898 ], [ -112.092715933929, 40.56603319891839 ], [ -112.081691496147997, 40.565994448171793 ], [ -112.081697256146001, 40.564389978329991 ], [ -112.079188777189998, 40.564591722234702 ], [ -112.079197552831999, 40.566174913793603 ], [ -112.063305918875002, 40.565994281663286 ], [ -112.062376859649007, 40.558743986951995 ], [ -112.082897084666996, 40.558996263252794 ], [ -112.089355805371, 40.552190643135802 ], [ -112.094709406934996, 40.549969732384 ], [ -112.082264231430997, 40.531405751961294 ], [ -112.088822495017993, 40.528045267320884 ], [ -112.091787093120999, 40.524561646545507 ], [ -112.093020809278002, 40.515240236506891 ], [ -112.091290632763005, 40.513506541315408 ], [ -112.091283683396, 40.512392793428305 ], [ -112.089490296644001, 40.512491038244505 ], [ -112.091278895374998, 40.511528484581198 ], [ -112.073359005643994, 40.511520385959201 ], [ -112.066788602789998, 40.509877677262899 ], [ -112.071579890427003, 40.509503710537402 ], [ -112.072182394080997, 40.496783416309697 ], [ -112.067409174258998, 40.496847783666198 ], [ -112.067408214859, 40.489549779331291 ], [ -112.060902737741998, 40.4918152608833 ], [ -112.057995892788995, 40.491474665428392 ], [ -112.057968120474001, 40.482273865176403 ], [ -112.062655657186994, 40.481959789494503 ], [ -112.062656024597999, 40.463972870571894 ], [ -112.043570707328996, 40.464025602213702 ], [ -112.043573464258998, 40.459615744802697 ], [ -112.041924793403993, 40.460397903610108 ], [ -112.038181519903006, 40.46462880810801 ], [ -112.035773713344994, 40.464217985044804 ], [ -112.033243037917003, 40.462714539363297 ], [ -112.032554067823, 40.460139749929702 ], [ -112.014632659040998, 40.460149547074792 ], [ -112.014506779916999, 40.456533052680498 ], [ -111.948378533663004, 40.456921127946295 ], [ -111.948238224899995, 40.4497011081978 ], [ -111.943564156628, 40.4497043122131 ], [ -111.943385700009003, 40.442373413334593 ], [ -111.938664027314999, 40.442351042257094 ], [ -111.938592622927999, 40.43494511391949 ], [ -111.936251769603999, 40.4350171588585 ], [ -111.937797458492994, 40.429731429866095 ], [ -111.930344905538007, 40.434080801790607 ], [ -111.919126628387019, 40.4431992032018 ], [ -111.914865787840995, 40.452243815794795 ], [ -111.913606810648005, 40.452456474190093 ], [ -111.914377950539006, 40.456674924649597 ], [ -111.914363064557008, 40.461083279389605 ], [ -111.914270803983996, 40.461524994922392 ], [ -111.913965627416999, 40.46262658434771 ], [ -111.913937643099004, 40.462711398846999 ], [ -111.912180299452004, 40.466179742732891 ], [ -111.903777782576, 40.478260453650698 ], [ -111.899102110811, 40.483792877427597 ], [ -111.900497635519997, 40.485380996483194 ], [ -111.898965632465007, 40.486125009330905 ], [ -111.905649277842002, 40.486144469641701 ], [ -111.905798320924006, 40.4899193988281 ], [ -111.915175014013002, 40.489763030136892 ], [ -111.915050789584996, 40.496879368228505 ], [ -111.919924001780004, 40.49683923651321 ], [ -111.917838990446, 40.499434326718898 ], [ -111.917148322535994, 40.501856521028593 ], [ -111.915073344486018, 40.502152154496287 ], [ -111.916682440060001, 40.505301772743898 ], [ -111.913786607554002, 40.509544624892399 ], [ -111.915281795851996, 40.510297820890202 ], [ -111.913768784978998, 40.516439577072397 ], [ -111.915328548670999, 40.517988999908503 ], [ -111.915436888190001, 40.519444956551183 ], [ -111.917011863952993, 40.52020542394321 ], [ -111.920206697108, 40.519268603672799 ], [ -111.920364262506993, 40.520656146833907 ], [ -111.919336623958003, 40.521623135093002 ], [ -111.921936749039006, 40.522607440241195 ], [ -111.921801918203002, 40.524898553280501 ], [ -111.919270446867998, 40.527061825066596 ], [ -111.921577392383014, 40.530398683272296 ], [ -111.919808654503996, 40.5321192226357 ], [ -111.917193399997004, 40.532007223060397 ], [ -111.917422105678995, 40.5368896114772 ], [ -111.917626353828012, 40.537770220504996 ], [ -111.916496632527014, 40.538373495496103 ], [ -111.918423384063999, 40.53967131382479 ], [ -111.916655711586998, 40.541181891234594 ], [ -111.916738984516002, 40.544249620313806 ], [ -111.895318441868994, 40.544331392251799 ], [ -111.90040852444001, 40.569665184917284 ], [ -111.901942102242003, 40.569668626813886 ], [ -111.903874222111995, 40.573294315418991 ], [ -111.916689843975007, 40.573273143849903 ], [ -111.921442168983006, 40.5785110197519 ], [ -111.920263169698003, 40.58050521949599 ], [ -111.922514019915013, 40.580504561793603 ], [ -111.922526085187997, 40.581589025794202 ], [ -111.918554162600017, 40.581610588391598 ], [ -111.913626210665001, 40.586094570699807 ], [ -111.912690070918003, 40.587839210856984 ], [ -111.913127610648004, 40.590486024152987 ], [ -111.912868072091001, 40.591065983562792 ], [ -111.911830885349005, 40.593225454564902 ], [ -111.911316143505005, 40.595987529851499 ], [ -111.913119172772994, 40.596702092731896 ], [ -111.917731183628007, 40.596632477705597 ], [ -111.919556005127006, 40.599836768056001 ], [ -111.921487969588, 40.611069695692287 ], [ -111.919772044563004, 40.618543448407806 ], [ -111.921222912679994, 40.628485001590697 ], [ -111.923050370734003, 40.630043317647988 ], [ -111.923094400758998, 40.626311315673895 ], [ -111.925982699095002, 40.62853855084969 ], [ -111.929216445472008, 40.6283250162424 ], [ -111.929221865008003, 40.631334578048914 ], [ -111.927002726219001, 40.631537360807101 ], [ -111.926509887098007, 40.634480563077993 ], [ -111.927557754808007, 40.636491885653207 ], [ -111.926929480284997, 40.637792190617894 ], [ -111.929079368846999, 40.637867882196197 ], [ -111.930095589809, 40.640844348638801 ], [ -111.929348431343001, 40.642542542860291 ], [ -111.931477470906003, 40.643268149176699 ], [ -111.932060530526002, 40.644416366554601 ], [ -111.931169112505998, 40.646498872290103 ], [ -111.929268731912998, 40.647369369281108 ], [ -111.929307054941006, 40.653090066722292 ], [ -111.923430607830994, 40.653064062524301 ], [ -111.921018789396001, 40.658773878733498 ], [ -111.916857511827999, 40.661758484104396 ], [ -111.913562631502998, 40.662442047981493 ], [ -111.912078149326007, 40.663879754576691 ], [ -111.909667570566995, 40.663763372572802 ], [ -111.908152920267995, 40.665427381856205 ], [ -111.907934168818002, 40.674986849969791 ], [ -111.911888990177999, 40.677462856960503 ], [ -111.912377779693998, 40.682217230726593 ] ], [ [ -111.986834533321996, 40.666203620039298 ], [ -111.986834389592005, 40.666204413176196 ], [ -111.98688208115, 40.665940505216902 ], [ -111.986834533321996, 40.666203620039298 ] ], [ [ -111.986908206853002, 40.665592262011799 ], [ -111.986906200915001, 40.665674726466882 ], [ -111.986909442037017, 40.665541462608395 ], [ -111.986908206853002, 40.665592262011799 ] ] ] } },
{ "type": "Feature", "properties": { "name": "Southeast Salt Lake Co." }, "geometry": { "type": "MultiPolygon", "coordinates": [ [ [ [ -111.645305701946, 40.653913658378301 ], [ -111.660440832263006, 40.653871595963885 ], [ -111.661841485454005, 40.650283161864692 ], [ -111.663455521762998, 40.650258404494302 ], [ -111.663237045198002, 40.635788163228696 ], [ -111.625809850101007, 40.636487486009401 ], [ -111.625977341883996, 40.597503382658395 ], [ -111.627280071521994, 40.597780234431191 ], [ -111.626627803896, 40.598439254056892 ], [ -111.630012560664994, 40.599051726517395 ], [ -111.631630632205997, 40.596960689478884 ], [ -111.635724676266008, 40.597756046233897 ], [ -111.633811264710999, 40.594118452911395 ], [ -111.641161028837004, 40.594116627544786 ], [ -111.64115877586201, 40.589587650219606 ], [ -111.647516207026996, 40.588923193022005 ], [ -111.651496187503, 40.587664987042203 ], [ -111.652612211293018, 40.586318899047491 ], [ -111.649760620815002, 40.584501233675489 ], [ -111.650376269516997, 40.583380497459892 ], [ -111.644931839294998, 40.584745497081997 ], [ -111.643527287414997, 40.5833099400419 ], [ -111.640703409962995, 40.571118243197503 ], [ -111.638096038173003, 40.567758598805199 ], [ -111.635132923648996, 40.568226269673609 ], [ -111.633499719987, 40.567413632115894 ], [ -111.620264741192997, 40.565189999169895 ], [ -111.6126378477, 40.56527303872199 ], [ -111.610978175178005, 40.565928662953198 ], [ -111.605784232087998, 40.564388476305496 ], [ -111.602081162687995, 40.569295131554711 ], [ -111.602555162341019, 40.574724986352699 ], [ -111.599468518685001, 40.577431981271502 ], [ -111.597886327653001, 40.577920351406483 ], [ -111.593718468128998, 40.577087991693212 ], [ -111.590707818352996, 40.580145526277192 ], [ -111.587824973688996, 40.581312280274908 ], [ -111.582676326351006, 40.58128359210049 ], [ -111.577849285764998, 40.583435272686103 ], [ -111.571812732820007, 40.5821447088694 ], [ -111.567903419214005, 40.584394939133702 ], [ -111.564026876149001, 40.584922570625999 ], [ -111.560035188827996, 40.590806102704796 ], [ -111.560995359407002, 40.593195444748886 ], [ -111.558417121779001, 40.599952380305403 ], [ -111.559124259401003, 40.601952336285294 ], [ -111.555969890857, 40.6050639759479 ], [ -111.553274218268001, 40.609321411653298 ], [ -111.553484371043993, 40.610737306657292 ], [ -111.558867668215996, 40.613432936264509 ], [ -111.557595428297006, 40.619603069514099 ], [ -111.567431087732004, 40.623288036167303 ], [ -111.568981617641995, 40.629407714004692 ], [ -111.572633619615004, 40.630716021623698 ], [ -111.576612370297994, 40.633523259252804 ], [ -111.576179170328004, 40.636777576935202 ], [ -111.577757936083998, 40.638689631023894 ], [ -111.577360068651004, 40.642582853128097 ], [ -111.578062262844, 40.643876777435509 ], [ -111.587721545259996, 40.649692337748895 ], [ -111.591760683391996, 40.650606183196601 ], [ -111.645298034825004, 40.650355355871888 ], [ -111.645305701946, 40.653913658378301 ] ] ], [ [ [ -111.806077973472995, 40.660702123489493 ], [ -111.805253076598007, 40.670625837742101 ], [ -111.802630794571002, 40.674448706489599 ], [ -111.803333670585005, 40.674738220216391 ], [ -111.798302044083997, 40.680851140367601 ], [ -111.798167383928003, 40.687011343102 ], [ -111.845078310871003, 40.687073322636301 ], [ -111.839257902464993, 40.665890439256792 ], [ -111.848403357522002, 40.667319030320002 ], [ -111.854394369475003, 40.665730776590394 ], [ -111.854470508882002, 40.659147621702893 ], [ -111.854595781642999, 40.655251991792895 ], [ -111.856844254918002, 40.655302983719402 ], [ -111.856990207796002, 40.657372442185903 ], [ -111.857995840314999, 40.657393801788096 ], [ -111.859606416312999, 40.661819918121097 ], [ -111.85713439189, 40.661637279285799 ], [ -111.857590208744, 40.662063259072205 ], [ -111.857754276148995, 40.662216585044185 ], [ -111.858515603742006, 40.662870648833106 ], [ -111.8585360485, 40.662886767213791 ], [ -111.859560333638001, 40.663614564534498 ], [ -111.859591162919997, 40.663634275838497 ], [ -111.860688388564, 40.664265480815395 ], [ -111.860896545282998, 40.66437113522241 ], [ -111.862252714799993, 40.664965128020306 ], [ -111.862328488591999, 40.664993862724998 ], [ -111.863568703572, 40.665404125772405 ], [ -111.863661354013999, 40.665430446779894 ], [ -111.864978767514003, 40.665704487726906 ], [ -111.865532051575002, 40.670624714205999 ], [ -111.867872094619003, 40.67057093298461 ], [ -111.867764067714006, 40.665979790847501 ], [ -111.871214857843, 40.667981550307204 ], [ -111.871698749743999, 40.673323869540894 ], [ -111.870577683709996, 40.673324760702599 ], [ -111.870378900911007, 40.674288737967593 ], [ -111.880928551216002, 40.6742804328413 ], [ -111.882928193851996, 40.675420509209196 ], [ -111.881862278987001, 40.676996419703009 ], [ -111.884091702587995, 40.678611814344791 ], [ -111.889322697590003, 40.678649832857097 ], [ -111.889326089628995, 40.679626246364791 ], [ -111.894389370065994, 40.680699781744401 ], [ -111.894676867787993, 40.679563284351495 ], [ -111.897581865804, 40.679844414891093 ], [ -111.898094286401999, 40.681355491324908 ], [ -111.899734691858001, 40.68105228280961 ], [ -111.899867076581003, 40.682334701818995 ], [ -111.900706753437007, 40.682314820967903 ], [ -111.899742280824995, 40.682795831810601 ], [ -111.899754887781995, 40.683830097592896 ], [ -111.902970837634001, 40.682751346798291 ], [ -111.903009487649001, 40.683896484097296 ], [ -111.907987605103003, 40.683791045234393 ], [ -111.907981045604004, 40.682706015680502 ], [ -111.912377779693998, 40.682217230726593 ], [ -111.911888990177999, 40.677462856960503 ], [ -111.907934168818002, 40.674986849969791 ], [ -111.908152920267995, 40.665427381856205 ], [ -111.909667570566995, 40.663763372572802 ], [ -111.912078149326007, 40.663879754576691 ], [ -111.913562631502998, 40.662442047981493 ], [ -111.916857511827999, 40.661758484104396 ], [ -111.921018789396001, 40.658773878733498 ], [ -111.923430607830994, 40.653064062524301 ], [ -111.929307054941006, 40.653090066722292 ], [ -111.929268731912998, 40.647369369281108 ], [ -111.931169112505998, 40.646498872290103 ], [ -111.932060530526002, 40.644416366554601 ], [ -111.931477470906003, 40.643268149176699 ], [ -111.929348431343001, 40.642542542860291 ], [ -111.930095589809, 40.640844348638801 ], [ -111.929079368846999, 40.637867882196197 ], [ -111.926929480284997, 40.637792190617894 ], [ -111.927557754808007, 40.636491885653207 ], [ -111.926509887098007, 40.634480563077993 ], [ -111.927002726219001, 40.631537360807101 ], [ -111.929221865008003, 40.631334578048914 ], [ -111.929216445472008, 40.6283250162424 ], [ -111.925982699095002, 40.62853855084969 ], [ -111.923094400758998, 40.626311315673895 ], [ -111.923050370734003, 40.630043317647988 ], [ -111.921222912679994, 40.628485001590697 ], [ -111.919772044563004, 40.618543448407806 ], [ -111.921487969588, 40.611069695692287 ], [ -111.919556005127006, 40.599836768056001 ], [ -111.917731183628007, 40.596632477705597 ], [ -111.913119172772994, 40.596702092731896 ], [ -111.911316143505005, 40.595987529851499 ], [ -111.910246339832995, 40.595943084494593 ], [ -111.910235485488997, 40.59357709583449 ], [ -111.911830885349005, 40.593225454564902 ], [ -111.912868072091001, 40.591065983562792 ], [ -111.913127610648004, 40.590486024152987 ], [ -111.912690070918003, 40.587839210856984 ], [ -111.913626210665001, 40.586094570699807 ], [ -111.918554162600017, 40.581610588391598 ], [ -111.919453678032994, 40.580099246688192 ], [ -111.921604512521, 40.578924306006201 ], [ -111.916689843975007, 40.573273142485185 ], [ -111.903874222111995, 40.5732943147367 ], [ -111.901942101344005, 40.569668626131495 ], [ -111.900408523542012, 40.569665184917284 ], [ -111.895318439174005, 40.544331390203894 ], [ -111.916738985414, 40.544249620313792 ], [ -111.916655712486005, 40.541181892599894 ], [ -111.918423382266994, 40.539671315872795 ], [ -111.916496633425012, 40.538373496178799 ], [ -111.917626352930014, 40.537770219822207 ], [ -111.917422105678995, 40.5368896114772 ], [ -111.917193399997004, 40.532007223060397 ], [ -111.919808654503996, 40.5321192226357 ], [ -111.921577392383014, 40.530398683272296 ], [ -111.919270446867998, 40.527061825066596 ], [ -111.921801918203002, 40.524898553280501 ], [ -111.921936749039006, 40.522607440241195 ], [ -111.919336623958003, 40.521623135093002 ], [ -111.920364262506993, 40.520656146833907 ], [ -111.920206697108, 40.519268603672799 ], [ -111.917011863952993, 40.52020542394321 ], [ -111.915436888190001, 40.519444956551183 ], [ -111.915328548670999, 40.517988999908503 ], [ -111.913768784978998, 40.516439577072397 ], [ -111.915281795851996, 40.510297820890202 ], [ -111.913786607554002, 40.509544624892399 ], [ -111.916682440060001, 40.505301772743898 ], [ -111.915073344486018, 40.502152154496287 ], [ -111.917148322535994, 40.501856521028593 ], [ -111.917838990446, 40.499434326718898 ], [ -111.919924001780004, 40.49683923651321 ], [ -111.915050789584996, 40.496879368228505 ], [ -111.915175014013002, 40.489763030136892 ], [ -111.905798320924006, 40.4899193988281 ], [ -111.905649277842002, 40.486144469641701 ], [ -111.898965632465007, 40.486125009330905 ], [ -111.900497635519997, 40.485380996483194 ], [ -111.899102110811, 40.483792877427597 ], [ -111.903777782576, 40.478260453650698 ], [ -111.912180299452004, 40.466179742732891 ], [ -111.913937643099004, 40.462711398846999 ], [ -111.913965627416999, 40.46262658434771 ], [ -111.914270803983996, 40.461524994922392 ], [ -111.914363064557008, 40.461083279389605 ], [ -111.914377950539006, 40.456674924649597 ], [ -111.913606810648005, 40.452456474190093 ], [ -111.907552238397002, 40.45350866398541 ], [ -111.900892190864013, 40.463457051028598 ], [ -111.892390460455005, 40.464090564149707 ], [ -111.891063620932997, 40.466330504168994 ], [ -111.887023046395001, 40.468077780165999 ], [ -111.884790997916994, 40.471022780237298 ], [ -111.880068686521, 40.473896637465003 ], [ -111.876001998857006, 40.475143732163097 ], [ -111.873633253742, 40.476972449163988 ], [ -111.872562177157008, 40.476344513221392 ], [ -111.870669118731996, 40.476832657040987 ], [ -111.868562302591002, 40.472636850058606 ], [ -111.865500436266998, 40.470290477267802 ], [ -111.862982865462996, 40.469257062163805 ], [ -111.860436547671, 40.47032765554539 ], [ -111.857724621862999, 40.469384490342399 ], [ -111.856181790514995, 40.471528338219201 ], [ -111.851219430409998, 40.471570396466596 ], [ -111.850118748048999, 40.474903955497986 ], [ -111.846159466553004, 40.476617945208496 ], [ -111.843734357543994, 40.476689818379313 ], [ -111.842142205094007, 40.474283890124191 ], [ -111.836227040595006, 40.474916652633091 ], [ -111.836316285524006, 40.47758345426849 ], [ -111.834498153778995, 40.479487834921109 ], [ -111.834788765062001, 40.481775979229305 ], [ -111.833314999787007, 40.481791570078499 ], [ -111.833326415577005, 40.482724178873788 ], [ -111.826321521875002, 40.482730240757803 ], [ -111.826318424484001, 40.486335624211399 ], [ -111.822416947779999, 40.486335976754688 ], [ -111.816314197083003, 40.4891669564308 ], [ -111.811947206213006, 40.488405837809502 ], [ -111.811978330141997, 40.493474563007197 ], [ -111.816617683919006, 40.4933525952125 ], [ -111.817844121437005, 40.493899500550995 ], [ -111.818693789354995, 40.494543475675997 ], [ -111.818356100962006, 40.495566754680503 ], [ -111.820545798365998, 40.496386891647397 ], [ -111.820481529296998, 40.497097788090095 ], [ -111.822679355556019, 40.496847842414191 ], [ -111.822213314077999, 40.497725560634699 ], [ -111.824375750308008, 40.4978130365865 ], [ -111.827214887441997, 40.499573893485703 ], [ -111.827090228230006, 40.500925756683401 ], [ -111.828631433626995, 40.500813185849694 ], [ -111.830387039033994, 40.502152905181795 ], [ -111.829950116446, 40.5027067565115 ], [ -111.831294181164012, 40.504547066447799 ], [ -111.829579097861, 40.506809355334703 ], [ -111.831609765612001, 40.507126375979304 ], [ -111.831752100074993, 40.5100587264388 ], [ -111.830966466766, 40.510363832868897 ], [ -111.831733423201996, 40.511728201562299 ], [ -111.829105456636, 40.512463561508895 ], [ -111.829934581879996, 40.512409142077303 ], [ -111.831791674456994, 40.514550886478702 ], [ -111.830641790469002, 40.516516690636202 ], [ -111.828921398122006, 40.517061017624997 ], [ -111.828159302469999, 40.519257703412691 ], [ -111.826324377619017, 40.519538132219992 ], [ -111.826905195942999, 40.520260090394991 ], [ -111.826152041222002, 40.522135533169092 ], [ -111.824628392498994, 40.522651632492092 ], [ -111.824044435462014, 40.521971937741689 ], [ -111.821749794170998, 40.52177522035911 ], [ -111.822405054984003, 40.524784646096094 ], [ -111.823748463033994, 40.525712355538893 ], [ -111.819552636259004, 40.529861751897791 ], [ -111.818049994638997, 40.530395543874306 ], [ -111.818035461693995, 40.531171396763497 ], [ -111.814041312091007, 40.533904777414392 ], [ -111.812608805538005, 40.533257216874283 ], [ -111.807792526770001, 40.533349006488301 ], [ -111.810989267946994, 40.535339094183591 ], [ -111.812127792737996, 40.535302359507995 ], [ -111.810049979604003, 40.536938083765705 ], [ -111.810455225797995, 40.54059255231779 ], [ -111.809733230939997, 40.540600947802695 ], [ -111.80969411559802, 40.543226751692394 ], [ -111.805789621453002, 40.543329722992603 ], [ -111.805748386085995, 40.5442344958836 ], [ -111.800965453680007, 40.544248203849207 ], [ -111.800946431854001, 40.547855734865294 ], [ -111.796180941136996, 40.547888223733601 ], [ -111.796202562687, 40.55148871534049 ], [ -111.786635397113017, 40.551382995625694 ], [ -111.786600580210006, 40.5550384663713 ], [ -111.791362094085002, 40.55509612661951 ], [ -111.791296253862996, 40.558713159744393 ], [ -111.786566612214003, 40.558716090339693 ], [ -111.786486424100019, 40.562380783258902 ], [ -111.777022644734004, 40.562441221571802 ], [ -111.777020078247006, 40.566162140441506 ], [ -111.791218931375013, 40.5659999095137 ], [ -111.791265409309005, 40.569504728470399 ], [ -111.795992471895005, 40.569469370462407 ], [ -111.796020442737998, 40.571959383978999 ], [ -111.794977112417996, 40.572526193530599 ], [ -111.795681017901003, 40.572028747655892 ], [ -111.794277351760996, 40.571466710383206 ], [ -111.790850508022004, 40.57141094481041 ], [ -111.790849729183009, 40.569538565444091 ], [ -111.788212488409002, 40.569532536654293 ], [ -111.788219197925997, 40.57326563813541 ], [ -111.787214576910003, 40.573523743480692 ], [ -111.777158435868998, 40.572393487480596 ], [ -111.778625762019999, 40.573730542550791 ], [ -111.785584340382997, 40.575970904445498 ], [ -111.786636537076006, 40.575312499901393 ], [ -111.786780669966006, 40.579809866852997 ], [ -111.787591918735998, 40.580363692571808 ], [ -111.786673825245003, 40.580351750880602 ], [ -111.789285021162996, 40.580578616722796 ], [ -111.790192956506004, 40.581956065214598 ], [ -111.786491960416996, 40.581358548108597 ], [ -111.784325665923006, 40.587762289218283 ], [ -111.786570046473017, 40.58819566393619 ], [ -111.785901173488995, 40.590716361241306 ], [ -111.786505430654998, 40.591021698651907 ], [ -111.786581790149, 40.609424582026506 ], [ -111.777106805198002, 40.609294404957694 ], [ -111.77730687797802, 40.620097993911394 ], [ -111.781340119568, 40.621606590573009 ], [ -111.781113059600003, 40.622275253050596 ], [ -111.783559659904, 40.623514204735002 ], [ -111.784328336613996, 40.623181348510883 ], [ -111.784109648945005, 40.623905425935 ], [ -111.779574780914004, 40.623880580371292 ], [ -111.779533246409002, 40.625669069156899 ], [ -111.781882032754012, 40.625682716807098 ], [ -111.781840538672995, 40.627471872526996 ], [ -111.786562598540996, 40.627500581790301 ], [ -111.786537569681002, 40.631144507896998 ], [ -111.791086854772999, 40.631166944873506 ], [ -111.791069817326019, 40.634722788931803 ], [ -111.786454161107002, 40.634708100793389 ], [ -111.786411518080001, 40.638309700427207 ], [ -111.791103677524006, 40.638332603987493 ], [ -111.791120870379999, 40.641962530500393 ], [ -111.799991895507006, 40.641923305705795 ], [ -111.805646660863999, 40.649295685639601 ], [ -111.806528582791998, 40.652364271407095 ], [ -111.805277762301998, 40.659252271566999 ], [ -111.806391710984002, 40.6592493617324 ], [ -111.806077973472995, 40.660702123489493 ] ] ] ] } },
{ "type": "Feature", "properties": { "name": "Southern Davis Co." }, "geometry": { "type": "Polygon", "coordinates": [ [ [ -111.891144498054004, 40.821831692269008 ], [ -111.891016555500002, 40.827281293743511 ], [ -111.872364938562001, 40.827422040695794 ], [ -111.872374873031006, 40.834604324170698 ], [ -111.853394074744998, 40.834674232497804 ], [ -111.853354375498, 40.841937054984989 ], [ -111.848531496806999, 40.841764539374694 ], [ -111.848598318887994, 40.849141875956192 ], [ -111.853400735752999, 40.849249679128185 ], [ -111.853455073047996, 40.856442424307183 ], [ -111.834301824278995, 40.856127627365595 ], [ -111.834387337606003, 40.859916810331498 ], [ -111.839151607511994, 40.860044398584208 ], [ -111.839206576323008, 40.863929284568698 ], [ -111.834480403068994, 40.863928441476887 ], [ -111.834639108429997, 40.871181684190809 ], [ -111.815565808822996, 40.871146069661194 ], [ -111.815382171620016, 40.885581363955502 ], [ -111.834204854736996, 40.885566744048703 ], [ -111.834426696392001, 40.878365536318803 ], [ -111.839169665445993, 40.878393281638495 ], [ -111.839088232267002, 40.882000792744698 ], [ -111.843876488988997, 40.882022609343686 ], [ -111.843765802172996, 40.889773420234896 ], [ -111.842274173898005, 40.889793151473491 ], [ -111.842265505154998, 40.89126246401829 ], [ -111.844583880833994, 40.891264426572207 ], [ -111.843807116590995, 40.895136730188597 ], [ -111.845032452774007, 40.895171628320803 ], [ -111.847676385997019, 40.898290972865105 ], [ -111.847621850173994, 40.900026633782311 ], [ -111.851292579326, 40.900012567731693 ], [ -111.851498784903995, 40.90351966855539 ], [ -111.863045465461994, 40.903523104764687 ], [ -111.863131494420998, 40.907491491671614 ], [ -111.853536905976995, 40.907528673953102 ], [ -111.853411205618002, 40.914836184231092 ], [ -111.864880463076005, 40.914770730893103 ], [ -111.865558988458005, 40.922071126168802 ], [ -111.867708181723998, 40.9220675850354 ], [ -111.86796751816, 40.929362281711697 ], [ -111.869874682830002, 40.929334397594893 ], [ -111.869748294361003, 40.930837018111291 ], [ -111.868369525028996, 40.9308555168369 ], [ -111.868463504977001, 40.931773645577401 ], [ -111.869609614244013, 40.931765007484799 ], [ -111.870279308289, 40.936545107669907 ], [ -111.866619782925, 40.936570869415903 ], [ -111.866679412196007, 40.940133159590793 ], [ -111.867848294653001, 40.939039782332003 ], [ -111.870784106681, 40.938983416270496 ], [ -111.872756014730996, 40.94863518344669 ], [ -111.873983374819005, 40.948639398258898 ], [ -111.875893406911999, 40.952652455179695 ], [ -111.880031365113993, 40.952172338040889 ], [ -111.880016008414998, 40.964838369275306 ], [ -111.878972276547003, 40.965709311799792 ], [ -111.872936515915995, 40.965720040782401 ], [ -111.873057169540004, 40.974783115127501 ], [ -111.875850223100016, 40.974777242364297 ], [ -111.875864544042003, 40.976578759693702 ], [ -111.877768630185997, 40.976575087197197 ], [ -111.877892139555001, 40.987449377445692 ], [ -111.880147934996998, 40.987453795242402 ], [ -111.880190001304996, 40.998402190041908 ], [ -111.887339644142997, 40.998420338304093 ], [ -111.887312734209999, 41.002087737978997 ], [ -111.890383772332001, 41.002065857956602 ], [ -111.892129542085996, 41.003846768624506 ], [ -111.892242692081993, 41.02382442935609 ], [ -111.896952869933997, 41.023760665170101 ], [ -111.896948522087996, 41.026490764957707 ], [ -111.896020626180004, 41.026501498961501 ], [ -111.896025504929995, 41.027317499732604 ], [ -111.896960279238996, 41.027313200491889 ], [ -111.896989489757004, 41.034694882003798 ], [ -111.899560638780002, 41.034704430885398 ], [ -111.901696723829005, 41.038319547273289 ], [ -111.901702392198999, 41.040739956934999 ], [ -111.902816892445998, 41.040370012017497 ], [ -111.903516097045994, 41.041995885730088 ], [ -111.906464357028, 41.041996151323701 ], [ -111.906454328235995, 41.04560033689139 ], [ -111.905174938626004, 41.045603459479089 ], [ -111.901676580007006, 41.049883473286883 ], [ -111.901658669396994, 41.051743949163907 ], [ -111.899262514886004, 41.051738709206802 ], [ -111.899304382666998, 41.056508028110798 ], [ -111.901625470358994, 41.056511240950591 ], [ -111.901589016724998, 41.060116254405109 ], [ -111.904035559536993, 41.060129153149695 ], [ -111.904040124774994, 41.05943685349861 ], [ -111.910831466475997, 41.059444267153303 ], [ -111.910786190487997, 41.056464151800306 ], [ -111.906357852767997, 41.056500511162696 ], [ -111.906411386070999, 41.054331682988398 ], [ -111.91084316344002, 41.053701760994798 ], [ -111.910874423913, 41.057537840535403 ], [ -111.911588460597002, 41.0577533402558 ], [ -111.917260389165008, 41.057427641018407 ], [ -111.920872260698999, 41.056160954470094 ], [ -111.920917103698997, 41.055144226141394 ], [ -111.921867753035016, 41.055558288065683 ], [ -111.930327956124998, 41.053819317365289 ], [ -111.929557931942, 41.052724699198798 ], [ -111.925811525117993, 41.05378849166749 ], [ -111.925798388155002, 41.0523337163701 ], [ -111.921078583956998, 41.051982646888504 ], [ -111.921045900552002, 41.05022428992141 ], [ -111.927108542368998, 41.049172544019498 ], [ -111.927809043238, 41.050104730677504 ], [ -111.931203789272999, 41.050039065269701 ], [ -111.927412405599, 41.047898889224896 ], [ -111.928483758865013, 41.04645907341191 ], [ -111.933554321944001, 41.046753924114505 ], [ -111.937532173413004, 41.045641664927196 ], [ -111.937009068253019, 41.047550298682303 ], [ -111.937779265811997, 41.047021930937603 ], [ -111.93963167547102, 41.052368036924193 ], [ -111.938726585991006, 41.052844640490392 ], [ -111.938316987459004, 41.051704954659996 ], [ -111.937411349108999, 41.0518914021307 ], [ -111.937992892373003, 41.0535345945353 ], [ -111.936381728876, 41.054127000459609 ], [ -111.936494568056006, 41.055076965743893 ], [ -111.941389046965995, 41.054566327890392 ], [ -111.940389787993993, 41.05329508073271 ], [ -111.946663913890006, 41.049433332156902 ], [ -111.947951377558994, 41.049432659440598 ], [ -111.948305167355016, 41.048547863649503 ], [ -111.949812309535005, 41.049757837329302 ], [ -111.954022111401017, 41.048325651210796 ], [ -111.952229102839993, 41.047122602161998 ], [ -111.953030896841014, 41.046450822949794 ], [ -111.951831840870994, 41.045647040869298 ], [ -111.957427745017014, 41.04565383142549 ], [ -111.959742872386997, 41.049359197162183 ], [ -111.963638589992001, 41.0475876934144 ], [ -111.963062705216004, 41.046397149528893 ], [ -111.966750554460006, 41.044415498947707 ], [ -111.968511067364005, 41.047357410304208 ], [ -111.970055164437994, 41.048224503532595 ], [ -111.971056259567007, 41.047766570923805 ], [ -111.971020142800995, 41.0459571727068 ], [ -111.972471919114994, 41.045160515309902 ], [ -111.976093796084996, 41.04920528570679 ], [ -111.980774645739004, 41.0455604586761 ], [ -111.987657046067994, 41.043144288721905 ], [ -111.987428741933002, 41.04130699706181 ], [ -111.989550680313002, 41.039948947500385 ], [ -111.987881113746994, 41.038380473917499 ], [ -111.988601335330998, 41.037933807311802 ], [ -111.990280098848999, 41.039472463956102 ], [ -111.994524627787001, 41.036734325516001 ], [ -111.992916347882996, 41.035248904575489 ], [ -111.994196136346005, 41.034412664901502 ], [ -111.990535298544003, 41.03116108816041 ], [ -111.983103323297001, 41.031188808640998 ], [ -111.979576509644019, 41.027595817364798 ], [ -111.978469067459997, 41.02759531926759 ], [ -111.978470545188998, 41.025606337078401 ], [ -111.964708098117995, 41.013039052548606 ], [ -111.965406407097021, 41.012972850598501 ], [ -111.959173851638994, 41.006843562742503 ], [ -111.956491317808997, 41.007512633950306 ], [ -111.954580805117004, 41.004380159208999 ], [ -111.950396589966005, 41.003451234657703 ], [ -111.947576385725, 41.004243380827297 ], [ -111.947387168187007, 40.999790449189895 ], [ -111.948666583849004, 40.999793438356491 ], [ -111.947791077687995, 40.996030763518803 ], [ -111.949376499959996, 40.995821341438194 ], [ -111.946926569601018, 40.99460828675749 ], [ -111.945010609525994, 40.991277059219108 ], [ -111.939929254087005, 40.98741450159109 ], [ -111.941451001974997, 40.980901843434701 ], [ -111.938760168610003, 40.96938863597741 ], [ -111.934296056381996, 40.965378724382198 ], [ -111.932214766768013, 40.965349631096188 ], [ -111.932707312139996, 40.967498588534696 ], [ -111.921216271435, 40.96757837368321 ], [ -111.921226139428001, 40.96874926059769 ], [ -111.918590331467996, 40.968805695533106 ], [ -111.918685083068993, 40.971429727001599 ], [ -111.911541202923999, 40.971463014683692 ], [ -111.911544249112012, 40.970302744090603 ], [ -111.913340076585996, 40.970304744994493 ], [ -111.915161885135007, 40.967800451617194 ], [ -111.915144020339, 40.965311827441603 ], [ -111.916341764768006, 40.965248895239796 ], [ -111.916335666105994, 40.962101861992302 ], [ -111.911571234503, 40.962142785890208 ], [ -111.911609044593007, 40.965166697863296 ], [ -111.904895941660996, 40.965162410847093 ], [ -111.902936645957993, 40.962412698603195 ], [ -111.901907261982004, 40.958289621930803 ], [ -111.891957516505997, 40.958350814578999 ], [ -111.8916795544, 40.963566879400403 ], [ -111.891675281114999, 40.952203490829596 ], [ -111.893534575461999, 40.952208013434202 ], [ -111.893496281180006, 40.95472572969269 ], [ -111.894297325986997, 40.954722491533694 ], [ -111.894818388377004, 40.953563512801097 ], [ -111.900049432787014, 40.952185804091201 ], [ -111.909940027795997, 40.952194195268291 ], [ -111.905958429452994, 40.949841992868507 ], [ -111.902737879328001, 40.946472078115903 ], [ -111.900493788036016, 40.941672959505993 ], [ -111.900958077799004, 40.937374234264411 ], [ -111.907541281644995, 40.931724921915404 ], [ -111.905276759070006, 40.926721558508405 ], [ -111.905810884760996, 40.924957162736092 ], [ -111.907931068731997, 40.92340909488361 ], [ -111.915809927984, 40.92040020671859 ], [ -111.915816147021005, 40.918441774289903 ], [ -111.909244129895001, 40.918435229926899 ], [ -111.909248431028004, 40.915975955550302 ], [ -111.904978769924, 40.915961078973893 ], [ -111.909499469726015, 40.913740570355998 ], [ -111.915750639175997, 40.907499120670607 ], [ -111.914123134426006, 40.90657034314291 ], [ -111.914917104100994, 40.9065648248217 ], [ -111.914909026450005, 40.904608916927899 ], [ -111.913756465483004, 40.904436830014703 ], [ -111.915270237230004, 40.9044338338119 ], [ -111.916396570086008, 40.901479198808197 ], [ -111.918867398851006, 40.901475186038986 ], [ -111.919385910025994, 40.90440232037701 ], [ -111.920454936655005, 40.903462067720199 ], [ -111.929962615790998, 40.903442574799193 ], [ -111.929964551660007, 40.902413600454501 ], [ -111.932854399589999, 40.902420121281509 ], [ -111.932855647349996, 40.900227509911495 ], [ -111.929964758273002, 40.90022833828219 ], [ -111.929988105486999, 40.896461990013286 ], [ -111.933695419426996, 40.892978547827006 ], [ -111.930010067498998, 40.892978148535796 ], [ -111.930014355158008, 40.892309523082794 ], [ -111.920891294203003, 40.892596048087697 ], [ -111.920744787065004, 40.89124174786609 ], [ -111.923989746212996, 40.891275249139191 ], [ -111.923993053809994, 40.890369624296 ], [ -111.928446407812999, 40.890387366971396 ], [ -111.928524896314997, 40.889718323495707 ], [ -111.930014652500006, 40.889719831777299 ], [ -111.930025411623006, 40.8857408040613 ], [ -111.934799403097003, 40.885740942606098 ], [ -111.934823053043999, 40.882107724709897 ], [ -111.930056469077002, 40.882109328250003 ], [ -111.930079233284999, 40.876359174312988 ], [ -111.938449957884004, 40.876987885643395 ], [ -111.939086376533993, 40.87118841188321 ], [ -111.949147258883002, 40.871186230002493 ], [ -111.949038787312006, 40.867811635695098 ], [ -111.941239185518995, 40.86776123451299 ], [ -111.942862641562002, 40.865427443795099 ], [ -111.948256043881997, 40.865447187726708 ], [ -111.948176236654007, 40.861515731674501 ], [ -111.964781630613999, 40.861480005281898 ], [ -111.964086869081996, 40.859979451537697 ], [ -111.966462500681004, 40.857873974758199 ], [ -111.965887790004018, 40.854632385333986 ], [ -111.963794180894013, 40.85533173510661 ], [ -111.961611029512994, 40.854239685375489 ], [ -111.964506640135994, 40.853451156299997 ], [ -111.961806519987007, 40.851883379665303 ], [ -111.959674901360998, 40.852157329804285 ], [ -111.958910513208011, 40.849251937158002 ], [ -111.961695624762001, 40.8490384955889 ], [ -111.963014785485001, 40.848176927590494 ], [ -111.960642402193997, 40.847895741675096 ], [ -111.955983969098995, 40.84921749455161 ], [ -111.953930012523998, 40.847647958322391 ], [ -111.952942959859996, 40.844687521865403 ], [ -111.949794778911993, 40.843131628249608 ], [ -111.951634670548003, 40.841578476967697 ], [ -111.946745070388005, 40.837965570690002 ], [ -111.944299030633005, 40.834160327736505 ], [ -111.944406644311997, 40.831664141161497 ], [ -111.940163149336001, 40.831246044723009 ], [ -111.937720033597003, 40.827317398838694 ], [ -111.936681861403017, 40.832002056472795 ], [ -111.933199738035995, 40.833355402410604 ], [ -111.919986848815, 40.8334930609319 ], [ -111.919820332602995, 40.821821652353485 ], [ -111.910427689027003, 40.821826884068095 ], [ -111.905676691728999, 40.821829056697879 ], [ -111.905681066525005, 40.81988411802481 ], [ -111.900919083728994, 40.819887982101491 ], [ -111.900918004852002, 40.821832624949799 ], [ -111.891144498054004, 40.821831692269008 ] ] ] } },
{ "type": "Feature", "properties": { "name": "Northern Davis Co." }, "geometry": { "type": "Polygon", "coordinates": [ [ [ -112.102998237519998, 41.152736052184707 ], [ -112.10298402976602, 41.147124702962607 ], [ -112.106656417207006, 41.147120013799899 ], [ -112.107303823151014, 41.145971154811697 ], [ -112.111114515213998, 41.147056897449993 ], [ -112.109790559283994, 41.143771807967205 ], [ -112.112888588187005, 41.143769867128292 ], [ -112.112859515110998, 41.152667440801899 ], [ -112.142695101640996, 41.152764534440493 ], [ -112.141402946970004, 41.152726610404493 ], [ -112.141399768729997, 41.151208022473398 ], [ -112.138133624613005, 41.151201507973596 ], [ -112.137683881268998, 41.148914367170498 ], [ -112.134150251199998, 41.148904418867801 ], [ -112.134146280645993, 41.149787370002599 ], [ -112.135289962665013, 41.149785967099 ], [ -112.135213668747994, 41.151821369436902 ], [ -112.132756175473006, 41.151800720198892 ], [ -112.132786097457, 41.148871736988504 ], [ -112.127851935468996, 41.14885778892701 ], [ -112.127839068898993, 41.145225542373396 ], [ -112.122886039595002, 41.145233151997203 ], [ -112.122652093143003, 41.140113691526395 ], [ -112.127116835986996, 41.13773593073681 ], [ -112.1270902216, 41.117734367540692 ], [ -112.122295939878001, 41.117735235140202 ], [ -112.122315613881995, 41.100008531289994 ], [ -112.117455164950997, 41.100034158782094 ], [ -112.117467616498999, 41.096441257827799 ], [ -112.115980898416012, 41.096450985269207 ], [ -112.114268074375005, 41.089239567746098 ], [ -112.104689865812006, 41.089235781014203 ], [ -112.104680312228993, 41.084905247972209 ], [ -112.103227366308005, 41.084662445335489 ], [ -112.103238783894994, 41.081999606761691 ], [ -112.104726923114001, 41.082001562293001 ], [ -112.104717656093001, 41.074765616710799 ], [ -112.093510265625, 41.074753622187103 ], [ -112.093498688138013, 41.076856174862492 ], [ -112.088690857127006, 41.076866302028698 ], [ -112.088693535903005, 41.074835537318592 ], [ -112.082292905654995, 41.07420646248999 ], [ -112.082292558904996, 41.073379810811595 ], [ -112.083889210118002, 41.073390745072601 ], [ -112.082299727461006, 41.072720995549297 ], [ -112.085833545278007, 41.072894569154293 ], [ -112.086667819666005, 41.069965801291794 ], [ -112.083893287571001, 41.069964910712002 ], [ -112.083901500867, 41.069305454409708 ], [ -112.076615438972993, 41.069282332961699 ], [ -112.076555730650995, 41.06747536327169 ], [ -112.079124726412005, 41.067476284362499 ], [ -112.079135727180997, 41.061517264242596 ], [ -112.074829108488004, 41.060153991506695 ], [ -112.044279657751005, 41.060094489164698 ], [ -112.044303340935002, 41.052984485575507 ], [ -112.043107036505006, 41.052982439083983 ], [ -112.043074349506995, 41.060125764376188 ], [ -112.038265066817999, 41.059800773203705 ], [ -112.037993566295, 41.052977899002393 ], [ -112.035901478032997, 41.052969700841693 ], [ -112.035864948042004, 41.057435434907497 ], [ -112.033521756403999, 41.056548668523298 ], [ -112.033844562408007, 41.056043940132 ], [ -112.031098626382999, 41.055383309161094 ], [ -112.027607203656999, 41.055349189334805 ], [ -112.027138236367009, 41.056092202822292 ], [ -112.027143886770006, 41.0536249645033 ], [ -112.025156984939997, 41.053625181953599 ], [ -112.025155181122017, 41.056524286039995 ], [ -112.022750519566017, 41.056529330528996 ], [ -112.022760908582001, 41.059536761314391 ], [ -112.018936840604994, 41.059538943072901 ], [ -112.018984276143001, 41.05043670546889 ], [ -112.016721712793, 41.049135041794194 ], [ -112.009309940658, 41.049118134385495 ], [ -112.009317174790993, 41.047559331493289 ], [ -112.007965550750001, 41.046947810840706 ], [ -112.007970762775003, 41.045028255865198 ], [ -112.004225189587004, 41.045027717249702 ], [ -111.995015963127997, 41.036418407620602 ], [ -111.990280100646004, 41.039472463278493 ], [ -111.988601337128003, 41.037933808666999 ], [ -111.987881111950998, 41.038380475950198 ], [ -111.989550679415004, 41.039948946145302 ], [ -111.987428744628005, 41.041306995029103 ], [ -111.987657045169001, 41.0431442893994 ], [ -111.986448674567995, 41.0442425337828 ], [ -111.981508776837003, 41.045280636378699 ], [ -111.983518072769002, 41.0470486169975 ], [ -111.982610075443006, 41.0482873036974 ], [ -111.984469605149002, 41.047360005051793 ], [ -111.986440919412004, 41.047364136323303 ], [ -111.986480029364998, 41.0483336006413 ], [ -111.987429901658004, 41.048213405881292 ], [ -111.987284995318007, 41.049997776578202 ], [ -111.981716079259002, 41.049725750338894 ], [ -111.981270900254998, 41.0490827688444 ], [ -111.982223171947993, 41.048810542357202 ], [ -111.980756986656999, 41.048578193186898 ], [ -111.981441291799996, 41.048001711439795 ], [ -111.979874731454004, 41.04637586008959 ], [ -111.976093798779999, 41.0492052863843 ], [ -111.972471918216996, 41.045160515309917 ], [ -111.971020141902997, 41.0459571727068 ], [ -111.971056262261996, 41.047766572956306 ], [ -111.970055164437994, 41.048224502855099 ], [ -111.969593610044996, 41.047422172598701 ], [ -111.968849819363001, 41.047738303248899 ], [ -111.967213395241004, 41.045211977018297 ], [ -111.965893161929003, 41.046058271025899 ], [ -111.966425308631997, 41.046346209059699 ], [ -111.958815666384993, 41.049873345351891 ], [ -111.957427744119016, 41.045653832102985 ], [ -111.951831840870994, 41.045647040869298 ], [ -111.953030895943016, 41.046450822949794 ], [ -111.952229101941001, 41.047122601484503 ], [ -111.954022113196999, 41.048325651888298 ], [ -111.949812309535005, 41.049757835974297 ], [ -111.948305166457018, 41.048547864326892 ], [ -111.947951380253997, 41.049432657408296 ], [ -111.946663911195003, 41.049433332156902 ], [ -111.940389790688002, 41.053295082087502 ], [ -111.941314660171997, 41.054598733610092 ], [ -111.934366506757996, 41.055457622296892 ], [ -111.934642035327002, 41.056494459398905 ], [ -111.931654631255995, 41.0570213861537 ], [ -111.930605588549014, 41.057020044263304 ], [ -111.930602706753007, 41.056114764642501 ], [ -111.926252687754015, 41.057099254358803 ], [ -111.925828124187007, 41.060089713856598 ], [ -111.920545512887003, 41.060106812844808 ], [ -111.920210255334993, 41.058936651039396 ], [ -111.919191604429997, 41.059282580880399 ], [ -111.918314154314999, 41.057802357639403 ], [ -111.910832175246995, 41.059047191449409 ], [ -111.910823310672001, 41.060785442789587 ], [ -111.911859060110004, 41.061103880590693 ], [ -111.910532051703996, 41.061205444673099 ], [ -111.909981054753004, 41.059454860989902 ], [ -111.904040124774994, 41.059436855530691 ], [ -111.904035562231996, 41.060129155181791 ], [ -111.901589014928007, 41.060116254405102 ], [ -111.901590384859006, 41.063963645481792 ], [ -111.908062453630009, 41.063992815810501 ], [ -111.907150598938003, 41.064499040326496 ], [ -111.907271700822008, 41.06577631895901 ], [ -111.908073558604002, 41.066443799890095 ], [ -111.910293328009999, 41.066445201866401 ], [ -111.910327177429011, 41.067518685678209 ], [ -111.907917972193005, 41.067506165623492 ], [ -111.908889453461001, 41.074623903494093 ], [ -111.905573874154996, 41.074606589545205 ], [ -111.905382071264995, 41.0759746950554 ], [ -111.902218834554006, 41.075946900665308 ], [ -111.902125001928994, 41.078843875755908 ], [ -111.901527307855005, 41.078810900982589 ], [ -111.901466284399007, 41.085496183028603 ], [ -111.903852179251018, 41.085497309024198 ], [ -111.903831733594998, 41.089122537793791 ], [ -111.901436146820004, 41.089127522909912 ], [ -111.901383931346004, 41.093408505922 ], [ -111.906134404926007, 41.0933775484867 ], [ -111.908240856351, 41.099608864864493 ], [ -111.909589359644997, 41.099300063714395 ], [ -111.910051896794997, 41.10028548137619 ], [ -111.909690133552004, 41.106171412135701 ], [ -111.909057951356999, 41.107222221355094 ], [ -111.901249438275997, 41.107245106768296 ], [ -111.901191378362995, 41.113276359879997 ], [ -111.905263536766995, 41.113253440698493 ], [ -111.905258308572016, 41.111771770781196 ], [ -111.906733365625001, 41.111769088558702 ], [ -111.906742952445995, 41.109314987699591 ], [ -111.909215684741, 41.109332431933197 ], [ -111.908905308726006, 41.112734466366895 ], [ -111.910766741961993, 41.112721567115393 ], [ -111.910753414555998, 41.114230496363703 ], [ -111.908800573248016, 41.114121789454899 ], [ -111.908611840800006, 41.115550851220689 ], [ -111.906711780904999, 41.115541049455601 ], [ -111.906703868544, 41.11434288009071 ], [ -111.901178305179997, 41.114340926198892 ], [ -111.901147800190003, 41.121541992361692 ], [ -111.905940966204, 41.121557544633994 ], [ -111.903937160775001, 41.12169706084439 ], [ -111.903936447513004, 41.124373754615803 ], [ -111.907796839767002, 41.124813970695207 ], [ -111.905232451465011, 41.126976406771107 ], [ -111.901130818438006, 41.126979379335793 ], [ -111.901117625780003, 41.1362017512715 ], [ -111.907124086061003, 41.135725833273 ], [ -111.910766889285, 41.134581283408203 ], [ -111.913618570493995, 41.135093408549707 ], [ -111.915108697684005, 41.137423356497301 ], [ -111.920349012707007, 41.137706596266703 ], [ -111.920921664445999, 41.1386764149443 ], [ -111.925222753111015, 41.137900871007801 ], [ -111.928484994946004, 41.138578226774897 ], [ -111.931073914441995, 41.136976899892396 ], [ -111.934095934195014, 41.138366037858987 ], [ -111.942918670384003, 41.137455253193899 ], [ -111.949500796251996, 41.1380793864152 ], [ -111.956202771752999, 41.140638025902199 ], [ -111.955772306255, 41.142947067369704 ], [ -111.958960624827995, 41.146658191203301 ], [ -111.963459338362995, 41.149951746944097 ], [ -111.971015992584995, 41.152654054278997 ], [ -111.979749618593004, 41.152659692703601 ], [ -111.987810423521012, 41.154389041479199 ], [ -111.98778470026302, 41.152664330740393 ], [ -111.999636139670002, 41.152673060962798 ], [ -112.021095264059994, 41.152659393060894 ], [ -112.102998237519998, 41.152736052184707 ] ], [ [ -112.035873596122997, 41.059080942906299 ], [ -112.035193328009996, 41.059080138881093 ], [ -112.035197480023001, 41.058523522790985 ], [ -112.035868313131004, 41.058521288164393 ], [ -112.035873596122997, 41.059080942906299 ] ], [ [ -111.955852259010001, 41.048669725042998 ], [ -111.955382039468006, 41.049518753511599 ], [ -111.954579787325997, 41.048817824426401 ], [ -111.955610714607005, 41.048456166998903 ], [ -111.955852259010001, 41.048669725042998 ] ], [ [ -111.955149656084004, 41.048062826943095 ], [ -111.954604886254998, 41.048422165524308 ], [ -111.954364991158002, 41.048215347513192 ], [ -111.954907184619003, 41.047858914168707 ], [ -111.955149656084004, 41.048062826943095 ] ] ] } },
{ "type": "Feature", "properties": { "name": "Box Elder Co." }, "geometry": { "type": "Polygon", "coordinates": [ [ [ -112.059859956292001, 41.565754112472995 ], [ -112.060231819294003, 41.571779317961891 ], [ -112.065202902939006, 41.571723917992493 ], [ -112.064920766361993, 41.5630107450352 ], [ -112.069526328213001, 41.562992324271903 ], [ -112.069157699146004, 41.560426005072799 ], [ -112.073888193296, 41.560405519337309 ], [ -112.073833955713994, 41.553355212839605 ], [ -112.068180141674006, 41.553351128958496 ], [ -112.066330427859, 41.539685927900791 ], [ -112.063865276445995, 41.537771673349702 ], [ -112.064113312076003, 41.535248888639501 ], [ -112.071349504896006, 41.536191404890786 ], [ -112.07134268668301, 41.5389236233584 ], [ -112.074044402238997, 41.538860934705397 ], [ -112.074021397283005, 41.536733750159598 ], [ -112.080003372185004, 41.538251552136089 ], [ -112.078858982292999, 41.537335815067891 ], [ -112.078671674573002, 41.524294767421097 ], [ -112.072133348761994, 41.524347332243394 ], [ -112.070859233160007, 41.521829130135202 ], [ -112.072355844390003, 41.521043871193683 ], [ -112.071993992212995, 41.517448984843199 ], [ -112.068495936326997, 41.517095049413399 ], [ -112.066633161007999, 41.513431498029199 ], [ -112.068907521034006, 41.513437705997092 ], [ -112.070179195912999, 41.5099758269711 ], [ -112.088791837645999, 41.509886909448895 ], [ -112.088821080504005, 41.511303200152099 ], [ -112.091136048872016, 41.511291884312506 ], [ -112.091116458412003, 41.509868479603597 ], [ -112.093008234942019, 41.509853512792105 ], [ -112.093028236829994, 41.5179954395078 ], [ -112.095672841992993, 41.517562073869101 ], [ -112.095426238277, 41.510597504904517 ], [ -112.094678566873, 41.510605164805305 ], [ -112.094666952555016, 41.509840313150001 ], [ -112.108500311735995, 41.509669888051697 ], [ -112.117130772522017, 41.493666437503691 ], [ -112.121535667806, 41.491867148839098 ], [ -112.121442003165996, 41.466275069111596 ], [ -112.063808860449996, 41.4663079652032 ], [ -112.063783156056019, 41.459350767427892 ], [ -112.078187759315995, 41.459376705935505 ], [ -112.078261920632997, 41.451022796097995 ], [ -112.063799817110009, 41.450962176225396 ], [ -112.063768273666994, 41.448533370962899 ], [ -112.057894678707996, 41.448573934537009 ], [ -112.058425489615999, 41.4431813086969 ], [ -112.05740435756401, 41.443149984684695 ], [ -112.056865482480006, 41.439390224378897 ], [ -112.063534604793006, 41.439261203591101 ], [ -112.063533877158008, 41.420550638134991 ], [ -112.058250044149005, 41.420731066489196 ], [ -112.055967953221995, 41.418163583130692 ], [ -112.055394970004016, 41.414952931676609 ], [ -112.053007849850005, 41.412307895038296 ], [ -112.055520212223001, 41.409814052097694 ], [ -112.055654861598995, 41.408479360291693 ], [ -112.050333581419011, 41.404763057068813 ], [ -112.050479308819007, 41.400878989672094 ], [ -112.045817681315, 41.396019077799394 ], [ -112.042952291815993, 41.389456240221698 ], [ -112.044851595330002, 41.359218879119702 ], [ -112.044645632295996, 41.336596528767402 ], [ -112.028683908187006, 41.336517822106096 ], [ -112.025423322845, 41.339316733469801 ], [ -112.025442760591005, 41.451785740624302 ], [ -112.020640879121999, 41.451775662683694 ], [ -112.020549367743996, 41.462633386963297 ], [ -112.008050257390011, 41.462671817145498 ], [ -112.005793216881997, 41.487011434086298 ], [ -112.002993238209996, 41.488381941103 ], [ -111.969153206485004, 41.488543448877408 ], [ -111.968769050039, 41.528313838178384 ], [ -112.005609254487993, 41.528260854245701 ], [ -112.006076561691998, 41.531955948801986 ], [ -112.004709807327004, 41.531964296797796 ], [ -112.006165357463004, 41.535511947555399 ], [ -112.019466095631003, 41.535787599277597 ], [ -112.019485136322018, 41.534893282733599 ], [ -112.022543747149996, 41.534929896849398 ], [ -112.022526231799006, 41.535840088192202 ], [ -112.020500283797006, 41.535803397934984 ], [ -112.020481653635997, 41.537177082324092 ], [ -112.022485914511009, 41.537213584199101 ], [ -112.022522614283005, 41.53602803499259 ], [ -112.028889395113012, 41.536087645347891 ], [ -112.029502958826001, 41.529497423875505 ], [ -112.035193835558005, 41.529497852925296 ], [ -112.035160199040021, 41.531477945228403 ], [ -112.037585077182001, 41.531577689449193 ], [ -112.037671132192997, 41.52874954407261 ], [ -112.044881413108996, 41.528716497433393 ], [ -112.045037226792999, 41.537652796598692 ], [ -112.038760423018999, 41.538017520587083 ], [ -112.038765696129019, 41.539810593508484 ], [ -112.037519033042997, 41.539918605283511 ], [ -112.037499281784008, 41.546162315861096 ], [ -112.044882146134, 41.54359446979489 ], [ -112.044901243419019, 41.542846010028995 ], [ -112.051532598761, 41.5427811433904 ], [ -112.049471585920003, 41.5498604221279 ], [ -112.052736285546004, 41.550401257793496 ], [ -112.054605249359994, 41.539128425456902 ], [ -112.053197827362993, 41.536510123509103 ], [ -112.049859087692994, 41.5362734954914 ], [ -112.049822484938019, 41.531826650219109 ], [ -112.060122381135997, 41.533904947956607 ], [ -112.060390421348998, 41.534760746857813 ], [ -112.057906836507001, 41.534722962604995 ], [ -112.059222733650998, 41.536598959403101 ], [ -112.054802552634001, 41.53908771145359 ], [ -112.054948182117997, 41.542006779546085 ], [ -112.058500566315999, 41.541908470092999 ], [ -112.059770051102007, 41.5427797617034 ], [ -112.059859956292001, 41.565754112472995 ] ] ] } },
{ "type": "Feature", "properties": { "name": "Northern Salt Lake Co." }, "geometry": { "type": "Polygon", "coordinates": [ [ [ -111.806077973472995, 40.660702123489493 ], [ -111.800760909985016, 40.660222205064791 ], [ -111.800722615702, 40.663845563316897 ], [ -111.786417223279997, 40.663810646334206 ], [ -111.786387022819, 40.667463943523401 ], [ -111.776896791661002, 40.667451526803788 ], [ -111.776963403536001, 40.707812235074094 ], [ -111.792324129567007, 40.707749174393101 ], [ -111.792335642376003, 40.710438332380193 ], [ -111.789922654335001, 40.71096484435099 ], [ -111.789950987199006, 40.7123804362773 ], [ -111.790996628884997, 40.712282920029793 ], [ -111.791108019082003, 40.71985085061069 ], [ -111.792002634205005, 40.720649432433291 ], [ -111.791145316233994, 40.722293706350101 ], [ -111.795930184509999, 40.722250711464383 ], [ -111.796008501432993, 40.733064148329298 ], [ -111.801577450729994, 40.7330724515745 ], [ -111.805509787259012, 40.730127573770098 ], [ -111.805537710490995, 40.734436156704199 ], [ -111.806526254358999, 40.734575461427994 ], [ -111.805520513142994, 40.736800292974486 ], [ -111.805528056297007, 40.740390584601592 ], [ -111.804438884947004, 40.741235251948879 ], [ -111.802382024118998, 40.741222994627904 ], [ -111.803407645052005, 40.742979005534004 ], [ -111.803101654611993, 40.747740238976689 ], [ -111.794963332261005, 40.747781809325005 ], [ -111.787607212553993, 40.749024610065909 ], [ -111.784046494685001, 40.748551584606496 ], [ -111.778034872684003, 40.749537260518991 ], [ -111.773679213163007, 40.7492042191978 ], [ -111.769890548689006, 40.745649121582296 ], [ -111.768139800471999, 40.745240269299288 ], [ -111.764493408478003, 40.74591363400841 ], [ -111.756166228813996, 40.752950542041084 ], [ -111.751017948886002, 40.75543870751661 ], [ -111.749489610956999, 40.758148401737998 ], [ -111.747972038439002, 40.758119690874999 ], [ -111.745815473598, 40.759715811367897 ], [ -111.744436395245003, 40.762058097273709 ], [ -111.737928374998006, 40.764227432326408 ], [ -111.731656477821005, 40.764996875008698 ], [ -111.725212563149, 40.768495641247192 ], [ -111.716703714489995, 40.777456575272701 ], [ -111.713481506074999, 40.779389044018309 ], [ -111.711316494374998, 40.781801188292491 ], [ -111.703815189850005, 40.785759385934398 ], [ -111.698212130623006, 40.790473957206586 ], [ -111.693871088487995, 40.790569688480304 ], [ -111.690626569513995, 40.795758481966196 ], [ -111.690122501451995, 40.798993193375694 ], [ -111.691478336795001, 40.807451128001496 ], [ -111.690699563020999, 40.81103331568611 ], [ -111.692427687166997, 40.816602872035006 ], [ -111.689212650900998, 40.819088360188303 ], [ -111.690009464643012, 40.823307106905716 ], [ -111.698780561179007, 40.828613600608001 ], [ -111.707362659365003, 40.83089231429441 ], [ -111.715013150702006, 40.834410585889792 ], [ -111.72265204299201, 40.834121202513003 ], [ -111.727064921603997, 40.835351226913289 ], [ -111.730475748380996, 40.834931779448389 ], [ -111.735988436192002, 40.828695903262293 ], [ -111.737027013526003, 40.826138904268497 ], [ -111.740509095570005, 40.824049538240089 ], [ -111.740479461047002, 40.819561829164698 ], [ -111.743141183606994, 40.819569307861798 ], [ -111.744192761359997, 40.815963127958589 ], [ -111.741345048010018, 40.808970205892201 ], [ -111.751710368510999, 40.803971564682904 ], [ -111.751903477550997, 40.799085842032291 ], [ -111.752716047742993, 40.798441935887801 ], [ -111.756515526135999, 40.797562186280096 ], [ -111.763384623313001, 40.794450650863197 ], [ -111.765878499254995, 40.791646912028192 ], [ -111.770633445548, 40.788356266456198 ], [ -111.773948166064002, 40.787178927741891 ], [ -111.775630879473994, 40.785431880389403 ], [ -111.779308327126003, 40.784482835212003 ], [ -111.78397259298201, 40.781421246906291 ], [ -111.790821894884004, 40.774340253405292 ], [ -111.798559082628998, 40.770582328265291 ], [ -111.80076196281, 40.763879442938894 ], [ -111.809994691892001, 40.754990929989894 ], [ -111.814375659649997, 40.754974062221699 ], [ -111.815440846879, 40.798472779602101 ], [ -111.799748706288995, 40.798429380378401 ], [ -111.799813804501994, 40.812403413100398 ], [ -111.787146266321002, 40.816878167247395 ], [ -111.787157153004003, 40.819674840949702 ], [ -111.780120511941007, 40.8196441729648 ], [ -111.740514839398003, 40.824917731482685 ], [ -111.740787283152002, 40.853378774789689 ], [ -111.756626619889019, 40.853197955204209 ], [ -111.758691026565003, 40.852404091339302 ], [ -111.760157372654007, 40.853025022491401 ], [ -111.762248136799002, 40.851191537930696 ], [ -111.768514645880998, 40.848330342735991 ], [ -111.772055623271001, 40.848828281730803 ], [ -111.774894808913999, 40.847634554555306 ], [ -111.778542543889003, 40.8445831845195 ], [ -111.781755258009994, 40.84390835096039 ], [ -111.786120958001007, 40.845446136605084 ], [ -111.789236230965017, 40.845559990416092 ], [ -111.792983798413005, 40.844480311470498 ], [ -111.799297548997004, 40.8402838831149 ], [ -111.801122136035005, 40.840109076316992 ], [ -111.804398476030997, 40.838356670748006 ], [ -111.812627730345994, 40.840096162382515 ], [ -111.817280822957002, 40.838437281951798 ], [ -111.821779005587999, 40.834338051046302 ], [ -111.828135376739993, 40.833789929581314 ], [ -111.830199629804994, 40.83193108092879 ], [ -111.837857467565001, 40.830686613221395 ], [ -111.841412870102005, 40.832453400511092 ], [ -111.844073915332004, 40.8322357770843 ], [ -111.846265422841, 40.829697380437004 ], [ -111.848783780570002, 40.8303905395302 ], [ -111.849792267935015, 40.829585875669302 ], [ -111.853666546347, 40.829286119777301 ], [ -111.853837885614993, 40.828312849954088 ], [ -111.856917332866999, 40.826618965408599 ], [ -111.858268831144017, 40.824284760626796 ], [ -111.860116874989998, 40.825053824352693 ], [ -111.863334571167997, 40.823985720366409 ], [ -111.865334308127004, 40.824560785978591 ], [ -111.868696705828995, 40.824139148679492 ], [ -111.870906203898002, 40.821708248583903 ], [ -111.891144498054004, 40.821831692269008 ], [ -111.900918004852002, 40.821832624949799 ], [ -111.900919083728994, 40.819887982101491 ], [ -111.905681066525005, 40.81988411802481 ], [ -111.905676691728999, 40.821829056697879 ], [ -111.910427689027003, 40.821826884068095 ], [ -111.945874530113997, 40.821797271443103 ], [ -111.944855218948007, 40.819994227129008 ], [ -111.948972704545, 40.820409888046697 ], [ -111.948025846099, 40.824541838787191 ], [ -111.94643092055, 40.82405907614551 ], [ -111.943513177235999, 40.827387322326302 ], [ -111.942991125800006, 40.831456242301101 ], [ -111.944556459881994, 40.8322479102223 ], [ -111.944043515046005, 40.834438577432195 ], [ -111.946893136629015, 40.838068087474696 ], [ -111.948441945696999, 40.838661110654797 ], [ -111.949066121908004, 40.840452582279283 ], [ -111.951134951572001, 40.841685640193901 ], [ -111.949756367396006, 40.842639855935097 ], [ -111.949558762376, 40.843857740920484 ], [ -111.953317573787999, 40.844885365408501 ], [ -111.955004040125004, 40.847726774111983 ], [ -111.953727422144993, 40.848570723081501 ], [ -111.955475449253996, 40.849231316932396 ], [ -111.960136731545006, 40.847074491612489 ], [ -111.962171780372003, 40.847464241874107 ], [ -111.963183230381006, 40.845967025942301 ], [ -111.963155140062, 40.841958952743703 ], [ -111.967813837262, 40.841956351272394 ], [ -111.967799143517993, 40.827465256462204 ], [ -112.006155768846, 40.827213035510503 ], [ -112.006039048944004, 40.798382718309902 ], [ -112.024976016631001, 40.798319638746698 ], [ -112.029787628650993, 40.801950934604207 ], [ -112.029828096855994, 40.809200566567995 ], [ -112.03460504828, 40.809204220490095 ], [ -112.034620440911993, 40.812828219854701 ], [ -112.039392417464995, 40.812830818389585 ], [ -112.039414810669001, 40.823684274384597 ], [ -112.058504512615002, 40.823686808595198 ], [ -112.058508984428002, 40.816420045812009 ], [ -112.063286659894004, 40.8164072788705 ], [ -112.063265564755994, 40.830908204404402 ], [ -112.072792276496997, 40.830882880007103 ], [ -112.072785437622997, 40.827294677156097 ], [ -112.101365438998997, 40.827150301470702 ], [ -112.101334214458006, 40.812660786150609 ], [ -112.142660304499998, 40.812634326166602 ], [ -112.141133727268993, 40.804532537952291 ], [ -112.138707011174006, 40.802030051225103 ], [ -112.141098447733, 40.796977365231207 ], [ -112.146856918199006, 40.79079480812959 ], [ -112.156192500787, 40.784814530558805 ], [ -112.165209593775998, 40.775047007937793 ], [ -112.170827353933007, 40.777159072218403 ], [ -112.165329528748003, 40.774735910283383 ], [ -112.170552707509003, 40.774015705902606 ], [ -112.171790329052996, 40.774861186261496 ], [ -112.172380046087, 40.774521528178688 ], [ -112.171990197016996, 40.775526491802204 ], [ -112.172900953967996, 40.775612546014102 ], [ -112.173745083772019, 40.77369726309449 ], [ -112.172864070040006, 40.773515515310407 ], [ -112.172911654699007, 40.772656989397397 ], [ -112.17245358577, 40.773352852655989 ], [ -112.170332902336, 40.772206453572494 ], [ -112.171069192984007, 40.769505676050699 ], [ -112.171374705519995, 40.769049727185696 ], [ -112.174551813118001, 40.769660985582497 ], [ -112.173595603210998, 40.768765018381785 ], [ -112.174799800239015, 40.7659402766526 ], [ -112.178041137380006, 40.766646093869703 ], [ -112.179781635819012, 40.765794141386607 ], [ -112.180111598701018, 40.764956506087202 ], [ -112.178805389887003, 40.7655418860477 ], [ -112.177603456613994, 40.764934475407898 ], [ -112.179445858142017, 40.764534336311698 ], [ -112.180183082140005, 40.761904925513299 ], [ -112.183398060913007, 40.759369396704002 ], [ -112.184666148820014, 40.756639292736594 ], [ -112.186453757606998, 40.758456194556885 ], [ -112.192003721011005, 40.758565833313796 ], [ -112.186625203774, 40.757524862067299 ], [ -112.184877888919004, 40.75620805188219 ], [ -112.187892879353996, 40.749503408561303 ], [ -112.193747915120014, 40.742173346495008 ], [ -112.204265121869994, 40.734556248268092 ], [ -112.207639575860995, 40.7340203931427 ], [ -112.207248881476005, 40.733214089203301 ], [ -112.209955191915, 40.733853177306607 ], [ -112.211941144226003, 40.736239641312594 ], [ -112.214078508476007, 40.734882409044204 ], [ -112.212547516924019, 40.733396902213201 ], [ -112.213238236935993, 40.731745077747192 ], [ -112.211660151204995, 40.731118099242195 ], [ -112.211964349506005, 40.730614400694485 ], [ -112.219944546807, 40.726669070954003 ], [ -112.223073992490995, 40.728185207458694 ], [ -112.221101834710012, 40.726561524038004 ], [ -112.221437195568001, 40.726057471033897 ], [ -112.226080345624993, 40.724697342618107 ], [ -112.227452050606004, 40.725306410944597 ], [ -112.226112837689001, 40.724338734943409 ], [ -112.218049270441, 40.726790936326395 ], [ -112.194974437079011, 40.737697051772798 ], [ -112.190135191083996, 40.740911590946702 ], [ -112.185822495287994, 40.747177166209489 ], [ -112.179210523792008, 40.7492467679279 ], [ -112.155372684783998, 40.768701754884603 ], [ -112.151668410743, 40.770698047452498 ], [ -112.140604571956018, 40.771613508754292 ], [ -112.104138978454998, 40.771407681036102 ], [ -112.104132018307993, 40.768797037221105 ], [ -112.099219204783012, 40.768700960926893 ], [ -112.096152892697006, 40.767633735118302 ], [ -112.093901953547004, 40.765623190585508 ], [ -112.091936882574998, 40.761917632175404 ], [ -112.086177106856994, 40.7590403226029 ], [ -112.080751634680993, 40.751130461434499 ], [ -112.080504238651002, 40.74456034303099 ], [ -112.082589421563, 40.74019308914761 ], [ -112.082477045915013, 40.718668508549499 ], [ -112.110188053914996, 40.718387725641101 ], [ -112.110191721736996, 40.712041823529098 ], [ -112.111355870970996, 40.71216881917271 ], [ -112.111335564553997, 40.71101565135789 ], [ -112.110596314855997, 40.711019249397403 ], [ -112.110857653636998, 40.700616289983792 ], [ -112.110451406718994, 40.699265616436207 ], [ -112.106151556830994, 40.696595159912192 ], [ -112.108948979795997, 40.694620026905099 ], [ -112.110230455294996, 40.694814942754299 ], [ -112.109915829350001, 40.697071285867601 ], [ -112.112752908443014, 40.695908517577706 ], [ -112.111459542842994, 40.6947445772579 ], [ -112.108928164933005, 40.694482993118598 ], [ -112.107477905872997, 40.695285211782902 ], [ -112.107471891653006, 40.694393061286505 ], [ -112.106161536216007, 40.694397698221799 ], [ -112.106196642377, 40.691640140676284 ], [ -112.103241501163012, 40.686361461433997 ], [ -112.097215923969998, 40.682013627799989 ], [ -112.097288538388, 40.653250120852995 ], [ -112.075422868838999, 40.653176045568998 ], [ -112.067448621080004, 40.645867356069211 ], [ -112.063152796542994, 40.645851136789595 ], [ -112.063358305028999, 40.641988536298207 ], [ -112.068154545078002, 40.642238217206696 ], [ -112.067863621181999, 40.631210996617696 ], [ -112.061908435839001, 40.631185107290598 ], [ -112.058358097105, 40.631207576977403 ], [ -112.043722037522002, 40.631235508125698 ], [ -112.033893794576997, 40.6313773500477 ], [ -112.030943289703998, 40.631380847398191 ], [ -112.024576142361994, 40.631278514026704 ], [ -112.024554623219018, 40.638557195342493 ], [ -112.034171686613007, 40.638551101199496 ], [ -112.037172591464994, 40.638544004998494 ], [ -112.037161791919004, 40.6421705943212 ], [ -112.043550557219021, 40.642181137843693 ], [ -112.043254464415995, 40.644841881704188 ], [ -112.043351869641, 40.644891990726201 ], [ -112.042959543017005, 40.646652475316394 ], [ -112.041859630511993, 40.646653306173199 ], [ -112.039399968704004, 40.646655294367598 ], [ -112.039014849262998, 40.645799523520402 ], [ -112.038712909327003, 40.645799717775702 ], [ -112.034207331763994, 40.645802234915195 ], [ -112.034244364812011, 40.653088029649993 ], [ -112.029857575072, 40.6530707564458 ], [ -112.027026497622998, 40.652918054174798 ], [ -112.026849715463996, 40.650390832635203 ], [ -112.025761431649997, 40.650251413815496 ], [ -112.024816813602996, 40.6502481805326 ], [ -112.024823730630004, 40.65117951493081 ], [ -112.025737829313996, 40.653058512198207 ], [ -112.024837181104999, 40.653055789512393 ], [ -112.024685841928999, 40.667584503393584 ], [ -112.01992857978, 40.667579782827687 ], [ -112.015174741110997, 40.667582402714508 ], [ -112.007905824462, 40.667580325883499 ], [ -112.007347708362005, 40.66748240949719 ], [ -112.006926823396995, 40.667352483911593 ], [ -112.005653427346004, 40.66726295700159 ], [ -112.005657346695003, 40.667578942692295 ], [ -112.005510399382999, 40.667373657027596 ], [ -112.003968134871997, 40.667365998348309 ], [ -111.987949143164002, 40.66757201787749 ], [ -111.981664442299007, 40.667570762784599 ], [ -111.957976985760993, 40.66763658835719 ], [ -111.958047396612002, 40.68214338516681 ], [ -111.937487257648996, 40.682265599077603 ], [ -111.921090353682999, 40.686328468396802 ], [ -111.917480990244997, 40.685583374227399 ], [ -111.916819967639, 40.685179727807594 ], [ -111.917351820592003, 40.683723503292697 ], [ -111.915222939133002, 40.682946024878795 ], [ -111.913462935574003, 40.683241661250293 ], [ -111.912377779693998, 40.682217230726593 ], [ -111.907981045604004, 40.682706015680502 ], [ -111.907987605103003, 40.683791045234393 ], [ -111.903009487649001, 40.683896484097296 ], [ -111.902970837634001, 40.682751346798291 ], [ -111.899754887781995, 40.683830097592896 ], [ -111.899742280824995, 40.682795831810601 ], [ -111.900706753437007, 40.682314820967903 ], [ -111.899867076581003, 40.682334701818995 ], [ -111.899734691858001, 40.68105228280961 ], [ -111.898094286401999, 40.681355491324908 ], [ -111.897581865804, 40.679844414891093 ], [ -111.894676867787993, 40.679563284351495 ], [ -111.894389370065994, 40.680699781744401 ], [ -111.889326089628995, 40.679626246364791 ], [ -111.889322697590003, 40.678649832857097 ], [ -111.884091702587995, 40.678611814344791 ], [ -111.881862278987001, 40.676996419703009 ], [ -111.882928193851996, 40.675420509209196 ], [ -111.880928551216002, 40.6742804328413 ], [ -111.870378900911007, 40.674288737967593 ], [ -111.870577683709996, 40.673324760702599 ], [ -111.871698749743999, 40.673323869540894 ], [ -111.871214857843, 40.667981550307204 ], [ -111.867764067714006, 40.665979790847501 ], [ -111.867872094619003, 40.67057093298461 ], [ -111.865532051575002, 40.670624714205999 ], [ -111.864978767514003, 40.665704487726906 ], [ -111.863661354013999, 40.665430446779894 ], [ -111.863568703572, 40.665404125772405 ], [ -111.862328488591999, 40.664993862724998 ], [ -111.862252714799993, 40.664965128020306 ], [ -111.860896545282998, 40.66437113522241 ], [ -111.860688388564, 40.664265480815395 ], [ -111.859591162919997, 40.663634275838497 ], [ -111.859560333638001, 40.663614564534498 ], [ -111.8585360485, 40.662886767213791 ], [ -111.858515603742006, 40.662870648833106 ], [ -111.857754276148995, 40.662216585044185 ], [ -111.857590208744, 40.662063259072205 ], [ -111.854470508882002, 40.659147621702893 ], [ -111.854394369475003, 40.665730776590394 ], [ -111.848403357522002, 40.667319030320002 ], [ -111.839257902464993, 40.665890439256792 ], [ -111.845078310871003, 40.687073322636301 ], [ -111.798167383928003, 40.687011343102 ], [ -111.798302044083997, 40.680851140367601 ], [ -111.803333670585005, 40.674738220216391 ], [ -111.802630794571002, 40.674448706489599 ], [ -111.805253076598007, 40.670625837742101 ], [ -111.806077973472995, 40.660702123489493 ] ] ] } },
{ "type": "Feature", "properties": { "name": "Northern Weber Co." }, "geometry": { "type": "Polygon", "coordinates": [ [ [ -111.996185785224, 41.241323521492994 ], [ -111.996099881129993, 41.244476051272407 ], [ -112.008606384619, 41.244632175092597 ], [ -112.009392005351998, 41.245189259900201 ], [ -112.007984625576995, 41.285812713072609 ], [ -112.001548505586001, 41.285755395847595 ], [ -111.995126366077002, 41.283615217035297 ], [ -111.991891933387009, 41.278168750300608 ], [ -111.990448197893997, 41.266786162091698 ], [ -111.969512608955995, 41.266527866618389 ], [ -111.969142810283003, 41.285257858051494 ], [ -111.942639148804005, 41.284668066158893 ], [ -111.94267749159502, 41.291952580507782 ], [ -111.936661917904999, 41.30076943150911 ], [ -111.937070022539004, 41.302285064165495 ], [ -111.936059107027006, 41.302150337965202 ], [ -111.935876608887, 41.302786407795082 ], [ -111.937063857401, 41.303022476298885 ], [ -111.93261038661602, 41.302779861140699 ], [ -111.931846781793993, 41.305148740749303 ], [ -111.932822531854995, 41.305118320586693 ], [ -111.932886734448999, 41.30927895025129 ], [ -111.931609610389003, 41.309281907794592 ], [ -111.931611495953007, 41.310068795098694 ], [ -111.934103598620993, 41.310025539766009 ], [ -111.934122811788001, 41.313187230320104 ], [ -111.935936573229, 41.3135700012906 ], [ -111.93554949456302, 41.315308368786496 ], [ -111.932764267126004, 41.315278099102301 ], [ -111.936305119650996, 41.320714700372086 ], [ -111.937383389944017, 41.320727002753294 ], [ -111.937429730435994, 41.335905820441091 ], [ -111.948078633799994, 41.335874794091097 ], [ -111.948309024720999, 41.333261245054693 ], [ -111.953659681608002, 41.3353687567487 ], [ -111.956900769016997, 41.335351581801902 ], [ -111.957346630740005, 41.339764457343698 ], [ -111.956681696868003, 41.340446540309195 ], [ -111.957466060859005, 41.340933812821191 ], [ -111.969498624881993, 41.340653918197191 ], [ -111.971630904668004, 41.34088283192839 ], [ -111.971603674934997, 41.342967045776305 ], [ -111.986224692229001, 41.343170549833296 ], [ -111.986921783990994, 41.345665873685597 ], [ -111.976489645003014, 41.344141169189101 ], [ -111.976636766588996, 41.350122987245193 ], [ -111.985535348436002, 41.350474981093782 ], [ -111.989891587371005, 41.350361119106992 ], [ -111.991170756893993, 41.343205342742507 ], [ -112.015241903653006, 41.343130532130999 ], [ -112.015436424845007, 41.336956050872601 ], [ -112.049078445423021, 41.336126546941401 ], [ -112.048971707600003, 41.328401046756596 ], [ -112.058899794696003, 41.328546756808201 ], [ -112.058797270870997, 41.335978453298701 ], [ -112.063900286488007, 41.335930130778998 ], [ -112.063965477227995, 41.328810076566093 ], [ -112.071119629608006, 41.328772539893698 ], [ -112.071331704779013, 41.325167286764092 ], [ -112.073471882551999, 41.325180942924497 ], [ -112.073482889610005, 41.324038865704686 ], [ -112.071066495156998, 41.324010756846583 ], [ -112.070228529592001, 41.321418798983593 ], [ -112.079020017884005, 41.32153532786409 ], [ -112.078367821225001, 41.325104817703583 ], [ -112.080820552530994, 41.325131081026193 ], [ -112.080764231756007, 41.328729393436902 ], [ -112.081528519298004, 41.328735724994502 ], [ -112.082105690461006, 41.326107220319685 ], [ -112.08321347670001, 41.326112922728704 ], [ -112.083189923771002, 41.328860797079201 ], [ -112.086691448951001, 41.328862106426001 ], [ -112.086738023904005, 41.332534569551299 ], [ -112.088783494094002, 41.332580270649693 ], [ -112.089459829383003, 41.334778636928498 ], [ -112.092766209041997, 41.334761701277898 ], [ -112.092719732904001, 41.336778742181295 ], [ -112.102406759787996, 41.336383344044606 ], [ -112.102495930155996, 41.332989635094798 ], [ -112.104330876565996, 41.332187398807804 ], [ -112.10515223857, 41.332973255467003 ], [ -112.112255301963003, 41.331537667580804 ], [ -112.124825174408997, 41.332041999092702 ], [ -112.122903379774996, 41.328606402841302 ], [ -112.12380367854, 41.324812239081801 ], [ -112.125865455847006, 41.322265752924302 ], [ -112.125589536511001, 41.316702591546502 ], [ -112.126752845821002, 41.314571264278293 ], [ -112.128741353839004, 41.313370850576902 ], [ -112.129001742201993, 41.311736359954402 ], [ -112.128245337376001, 41.30814242790359 ], [ -112.128801687388005, 41.305814493306791 ], [ -112.126300272783993, 41.30251064467771 ], [ -112.128068739371002, 41.301777130110196 ], [ -112.127372889979, 41.300813274040003 ], [ -112.128582244236, 41.2996088972222 ], [ -112.133167846418999, 41.300117674206803 ], [ -112.140603096023995, 41.2983465346584 ], [ -112.147651033401999, 41.292742918027706 ], [ -112.149576783317002, 41.289470829908403 ], [ -112.146392351754997, 41.291895386793691 ], [ -112.144086857917003, 41.291007146865695 ], [ -112.146683027715994, 41.290370989155299 ], [ -112.147568806112005, 41.29096919491689 ], [ -112.148781199368997, 41.289294542183406 ], [ -112.145090399159017, 41.2868169241248 ], [ -112.145102502161009, 41.284781592720201 ], [ -112.146387755974004, 41.285215415192091 ], [ -112.146103320609001, 41.283872761763405 ], [ -112.150415205225997, 41.282701265098183 ], [ -112.160638371824007, 41.282943767278695 ], [ -112.164903666217995, 41.2749084678142 ], [ -112.169017001599002, 41.271485352664591 ], [ -112.249036667845004, 41.271701827736599 ], [ -112.250474169929007, 41.266178923670104 ], [ -112.247872868952996, 41.267863099862495 ], [ -112.243373563427994, 41.269264348870095 ], [ -112.248791769132012, 41.260915435065186 ], [ -112.248873514026002, 41.256219314894608 ], [ -112.250683415406002, 41.255676065758692 ], [ -112.252265465402999, 41.253946154036107 ], [ -112.252556403672003, 41.254678653734203 ], [ -112.253695291382996, 41.254247699775192 ], [ -112.253226430991006, 41.252370585725401 ], [ -112.257626656832002, 41.250894908031192 ], [ -112.260628294708994, 41.245508859253796 ], [ -112.253227032862995, 41.242247374852596 ], [ -112.240411064249997, 41.242111893802708 ], [ -112.237810695725997, 41.240508676112398 ], [ -112.235937156793, 41.242130072068292 ], [ -112.231999776224015, 41.242674809769703 ], [ -112.230694833136013, 41.242050954831605 ], [ -112.230084213203, 41.239764253121983 ], [ -112.226316668121996, 41.242389121261709 ], [ -112.224909202107995, 41.240815955913014 ], [ -112.211147288635999, 41.236462723763097 ], [ -112.206520340593997, 41.233463569149706 ], [ -112.200636221870994, 41.23224931423939 ], [ -112.196820832518, 41.22950735390809 ], [ -112.191743101781, 41.228552637610591 ], [ -112.181245930155995, 41.2221230700953 ], [ -112.171432177037005, 41.218868298218801 ], [ -112.166717141096001, 41.216140055787911 ], [ -112.164484487153999, 41.213657920313693 ], [ -112.150577210099996, 41.211501783707895 ], [ -112.139808291814006, 41.205191087659394 ], [ -112.132232540307996, 41.205191783787185 ], [ -112.121287818127001, 41.205239968651497 ], [ -112.119710714255007, 41.207801878305197 ], [ -112.123073656336004, 41.208810145692205 ], [ -112.123758536400004, 41.210091832163194 ], [ -112.123207937402995, 41.212915976424007 ], [ -112.102625527407, 41.212721904437103 ], [ -112.102691507766011, 41.207872635817289 ], [ -112.096556548874005, 41.207840702425898 ], [ -112.097109336167009, 41.205446136886302 ], [ -112.084060176584003, 41.205321812888897 ], [ -112.083564005612004, 41.201714212878301 ], [ -112.073969816917995, 41.201736083938002 ], [ -112.073486200800019, 41.20006515894211 ], [ -112.062797898225995, 41.199704096179609 ], [ -112.062008161411995, 41.201379611586795 ], [ -112.064228456332003, 41.20139064078451 ], [ -112.064224031231007, 41.20255294679729 ], [ -112.064149729777995, 41.202555204234692 ], [ -112.061775575007999, 41.204125809536883 ], [ -112.061761592731003, 41.205297674195499 ], [ -112.064105781498995, 41.205310219342401 ], [ -112.064083341583, 41.207061254811087 ], [ -112.059782870060999, 41.207563640014897 ], [ -112.059792379627012, 41.208935423392795 ], [ -112.057823763003995, 41.208899757324197 ], [ -112.057469391099005, 41.216170600539698 ], [ -112.059320580846006, 41.216186552703299 ], [ -112.061323985626998, 41.216202423774391 ], [ -112.064009330285003, 41.216229795906401 ], [ -112.064055577353002, 41.212576567499902 ], [ -112.069066673757007, 41.212608518853102 ], [ -112.069093844201007, 41.210753311516207 ], [ -112.071615092708001, 41.21076716733441 ], [ -112.071629001323004, 41.212628028491295 ], [ -112.070457967400998, 41.212620094212092 ], [ -112.070439308494002, 41.214929120107406 ], [ -112.071321454103, 41.2149338415838 ], [ -112.071281080220999, 41.22000718148589 ], [ -112.069431773342004, 41.220660594842101 ], [ -112.069438235823014, 41.219860861373803 ], [ -112.068869385753999, 41.218522279256895 ], [ -112.067733480450002, 41.2185159424061 ], [ -112.067403302871, 41.220994572526386 ], [ -112.066603854370001, 41.220992127883683 ], [ -112.066162254255005, 41.218507158791994 ], [ -112.065807249036993, 41.219861685052905 ], [ -112.064034559470002, 41.219850090028594 ], [ -112.064058812186005, 41.217931902137799 ], [ -112.065334290531993, 41.217938678939298 ], [ -112.065345855442999, 41.216971021074706 ], [ -112.061852529186993, 41.217203169909403 ], [ -112.061990792486, 41.218007092227694 ], [ -112.059273110272997, 41.217991050637302 ], [ -112.059271522949999, 41.219800169912091 ], [ -112.057045645898015, 41.219784864600399 ], [ -112.057043122530999, 41.228947503264102 ], [ -112.059795141945997, 41.228970756969602 ], [ -112.059786272878995, 41.23077102227311 ], [ -112.061581005307005, 41.230789798885795 ], [ -112.061539209391995, 41.233863240772898 ], [ -112.059887090803997, 41.234286778546107 ], [ -112.059166940186998, 41.230766632978103 ], [ -112.057018109840001, 41.230750168897004 ], [ -112.057010129207001, 41.234350878903996 ], [ -112.044714817843996, 41.234308706947502 ], [ -112.044697446223012, 41.237968861394805 ], [ -112.037496060425994, 41.238008667369598 ], [ -112.037429713554005, 41.243283163733395 ], [ -112.036708790386001, 41.244560278019797 ], [ -112.033656911530997, 41.244293618378002 ], [ -112.033055209173995, 41.242779786388887 ], [ -112.031397801305999, 41.243454637460403 ], [ -112.029727958058004, 41.241697595895893 ], [ -112.022381930025006, 41.241741354503283 ], [ -112.022912829866002, 41.238570712148302 ], [ -112.021398796710002, 41.237562862981001 ], [ -112.010384209855005, 41.236649476897611 ], [ -112.007746616044003, 41.237111807418493 ], [ -112.004487794094004, 41.234475180834195 ], [ -111.996781936891011, 41.23427462199399 ], [ -111.996211167121999, 41.240535309895698 ], [ -111.996185785224, 41.241323521492994 ] ] ] } },
{ "type": "Feature", "properties": { "name": "Southern Weber Co." }, "geometry": { "type": "MultiPolygon", "coordinates": [ [ [ [ -111.944510642273002, 41.146863861360004 ], [ -111.953809783802996, 41.146925295555597 ], [ -111.961929295432, 41.149463025866893 ], [ -111.957472449676999, 41.145984532552184 ], [ -111.955613686234003, 41.141977426846204 ], [ -111.954159040701001, 41.140910616287492 ], [ -111.954050130753004, 41.144544473068287 ], [ -111.949161993049998, 41.143967638921396 ], [ -111.949277003456999, 41.139729940335599 ], [ -111.946333418307006, 41.138088065809114 ], [ -111.941747032793003, 41.1378357831206 ], [ -111.941723037893993, 41.138532106367691 ], [ -111.940850143136004, 41.138524373512503 ], [ -111.940846184259996, 41.137855574158806 ], [ -111.940385540758996, 41.138522314123797 ], [ -111.933638134760002, 41.13882662599049 ], [ -111.931595245428994, 41.137216528917193 ], [ -111.928484995844997, 41.13857822812799 ], [ -111.925222754009013, 41.137900873037395 ], [ -111.920921665343997, 41.1386764149443 ], [ -111.916854787237, 41.138036057083397 ], [ -111.916216005120006, 41.139935317637303 ], [ -111.915506401623006, 41.139495698232508 ], [ -111.915548476015999, 41.137688565563892 ], [ -111.914685198621001, 41.137145944698709 ], [ -111.913908381376999, 41.137225886331898 ], [ -111.914028865220004, 41.138368747409402 ], [ -111.904384687974996, 41.137357981954601 ], [ -111.913577091684019, 41.140115263767903 ], [ -111.914125744032006, 41.141372914358897 ], [ -111.911077456642005, 41.140717418005984 ], [ -111.913778776040999, 41.141872000948297 ], [ -111.913869817600997, 41.147974639928499 ], [ -111.914795588095004, 41.147962427428709 ], [ -111.915477789383019, 41.146638520524796 ], [ -111.944510642273002, 41.146863861360004 ] ] ], [ [ [ -111.987810423521012, 41.154389041479199 ], [ -111.987832650536006, 41.15807302216259 ], [ -111.992597540280002, 41.158099615791905 ], [ -111.992636617892998, 41.161755817867991 ], [ -111.991505147571999, 41.161718452924291 ], [ -111.987833591072004, 41.158453143657297 ], [ -111.968447843036003, 41.15223267062651 ], [ -111.968449959466994, 41.152870407507997 ], [ -111.967652548345001, 41.152651913490196 ], [ -111.968451359941, 41.153605253576302 ], [ -111.968455493986994, 41.159392022736995 ], [ -111.961030681907005, 41.157112990329885 ], [ -111.959129682373998, 41.154292362836998 ], [ -111.957382094430997, 41.153658428216197 ], [ -111.957455984456004, 41.151438467329903 ], [ -111.956537574756993, 41.150812036976795 ], [ -111.955001540062995, 41.151033222479299 ], [ -111.953985988346005, 41.152195988828183 ], [ -111.953996154579997, 41.150677817453008 ], [ -111.951186947514998, 41.150533863346581 ], [ -111.951515902487998, 41.149852496760403 ], [ -111.949367842895001, 41.149944713503402 ], [ -111.949373352262995, 41.149393031145294 ], [ -111.939709241401999, 41.149890873633105 ], [ -111.939732911112003, 41.151348237268998 ], [ -111.937948730295005, 41.151372059678401 ], [ -111.937982569832002, 41.150334804516895 ], [ -111.935103685840019, 41.15029974776759 ], [ -111.934993911711999, 41.150827058090599 ], [ -111.934280175065993, 41.150314718267396 ], [ -111.933636518691003, 41.15137304317529 ], [ -111.931593210745021, 41.151318696495402 ], [ -111.935303511583015, 41.155882173922102 ], [ -111.933949795366004, 41.156366433923395 ], [ -111.933038658428003, 41.154039886813095 ], [ -111.931309011636998, 41.154032174725096 ], [ -111.931325025004995, 41.153117388987503 ], [ -111.929960137338995, 41.153104816253489 ], [ -111.930139945923003, 41.15556394316161 ], [ -111.929361246709007, 41.15557536492819 ], [ -111.928958866139993, 41.156823492905502 ], [ -111.930400663070003, 41.15782748778669 ], [ -111.930079123690007, 41.160291027006288 ], [ -111.932688441230994, 41.161265289781205 ], [ -111.936578722231999, 41.161345329157299 ], [ -111.939677336836994, 41.16409603119849 ], [ -111.939972564561998, 41.166488437948303 ], [ -111.937961326472006, 41.16674318285159 ], [ -111.937935515179007, 41.164899765301101 ], [ -111.936345284224998, 41.164900451713294 ], [ -111.936341471775009, 41.164314072514202 ], [ -111.929963882416004, 41.164313946727205 ], [ -111.930055285096998, 41.161226682183603 ], [ -111.923418259588999, 41.161302514311799 ], [ -111.923249164313006, 41.160115916454401 ], [ -111.920436494243006, 41.160132392224099 ], [ -111.920393336481013, 41.175881376583099 ], [ -111.929937303062999, 41.175955860404791 ], [ -111.928927722447995, 41.219214728207298 ], [ -111.924273680317995, 41.219266232627497 ], [ -111.924399951108015, 41.230053782435903 ], [ -111.927751255513996, 41.230022052417198 ], [ -111.929243457812007, 41.228624268536905 ], [ -111.929186112958007, 41.233843535477597 ], [ -111.927719089538996, 41.233840501554702 ], [ -111.927783297521998, 41.237604761955701 ], [ -111.929011803860007, 41.237612507436708 ], [ -111.928770873904, 41.2664993136557 ], [ -111.942946044745995, 41.26654892059689 ], [ -111.942969892321997, 41.273839704761102 ], [ -111.947730466558994, 41.273886450948794 ], [ -111.947681562274994, 41.277530180163396 ], [ -111.950204407089004, 41.277527308268702 ], [ -111.950000255956994, 41.278204747186393 ], [ -111.942652885840999, 41.277972124362101 ], [ -111.942639147007, 41.284668066833902 ], [ -111.969142811181001, 41.285257858726503 ], [ -111.969512607159004, 41.26652786729359 ], [ -111.990448197893997, 41.266786163442205 ], [ -111.991891934286002, 41.278168748275299 ], [ -111.995126368772006, 41.283615217035297 ], [ -112.001548502891012, 41.285755395847595 ], [ -112.007984623780018, 41.285812711722599 ], [ -112.009392008946008, 41.245189259900208 ], [ -112.008606388212002, 41.244632177794394 ], [ -111.996099879333002, 41.24447604857059 ], [ -111.996185785224, 41.241323521492994 ], [ -111.996211167121999, 41.240535309895698 ], [ -111.996781936891011, 41.23427462199399 ], [ -112.004487794094004, 41.234475180834195 ], [ -112.007746616044003, 41.237111807418493 ], [ -112.010384209855005, 41.236649476897611 ], [ -112.021398796710002, 41.237562862981001 ], [ -112.022912829866002, 41.238570712148302 ], [ -112.022381930025006, 41.241741354503283 ], [ -112.029727958058004, 41.241697595895893 ], [ -112.031397801305999, 41.243454637460403 ], [ -112.033055209173995, 41.242779786388887 ], [ -112.033656911530997, 41.244293618378002 ], [ -112.036708790386001, 41.244560278019797 ], [ -112.037429713554005, 41.243283163733395 ], [ -112.037496060425994, 41.238008667369598 ], [ -112.044697446223012, 41.237968861394805 ], [ -112.044714817843996, 41.234308706947502 ], [ -112.057010129207001, 41.234350878903996 ], [ -112.057018109840001, 41.230750168897004 ], [ -112.059166940186998, 41.230766632978103 ], [ -112.059887090803997, 41.234286778546107 ], [ -112.061539209391995, 41.233863240772898 ], [ -112.061581005307005, 41.230789798885795 ], [ -112.059786272878995, 41.23077102227311 ], [ -112.059795141945997, 41.228970756969602 ], [ -112.057043122530999, 41.228947503264102 ], [ -112.057045645898015, 41.219784864600399 ], [ -112.059271522949999, 41.219800169912091 ], [ -112.059273110272997, 41.217991050637302 ], [ -112.061990792486, 41.218007092227694 ], [ -112.061852529186993, 41.217203169909403 ], [ -112.065345855442999, 41.216971021074706 ], [ -112.065334290531993, 41.217938678939298 ], [ -112.064058812186005, 41.217931902137799 ], [ -112.064034559470002, 41.219850090028594 ], [ -112.065807249036993, 41.219861685052905 ], [ -112.066162254255005, 41.218507158791994 ], [ -112.066603854370001, 41.220992127883683 ], [ -112.067403302871, 41.220994572526386 ], [ -112.067733480450002, 41.2185159424061 ], [ -112.068869385753999, 41.218522279256895 ], [ -112.069438235823014, 41.219860861373803 ], [ -112.069431773342004, 41.220660594842101 ], [ -112.071281080220999, 41.22000718148589 ], [ -112.071321454103, 41.2149338415838 ], [ -112.070439308494002, 41.214929120107406 ], [ -112.070457967400998, 41.212620094212092 ], [ -112.071629001323004, 41.212628028491295 ], [ -112.071615092708001, 41.21076716733441 ], [ -112.069093844201007, 41.210753311516207 ], [ -112.069066673757007, 41.212608518853102 ], [ -112.064055577353002, 41.212576567499902 ], [ -112.064009330285003, 41.216229795906401 ], [ -112.061323985626998, 41.216202423774391 ], [ -112.059320580846006, 41.216186552703299 ], [ -112.057469391099005, 41.216170600539698 ], [ -112.057823763003995, 41.208899757324197 ], [ -112.059792379627012, 41.208935423392795 ], [ -112.059782870060999, 41.207563640014897 ], [ -112.064083341583, 41.207061254811087 ], [ -112.064105781498995, 41.205310219342401 ], [ -112.061761592731003, 41.205297674195499 ], [ -112.061775575007999, 41.204125809536883 ], [ -112.064149729777995, 41.202555204234692 ], [ -112.064224031231007, 41.20255294679729 ], [ -112.064228456332003, 41.20139064078451 ], [ -112.062008161411995, 41.201379611586795 ], [ -112.062797898225995, 41.199704096179609 ], [ -112.073486200800019, 41.20006515894211 ], [ -112.073969816917995, 41.201736083938002 ], [ -112.083564005612004, 41.201714212878301 ], [ -112.084060176584003, 41.205321812888897 ], [ -112.097109336167009, 41.205446136886302 ], [ -112.096556548874005, 41.207840702425898 ], [ -112.102691507766011, 41.207872635817289 ], [ -112.102625527407, 41.212721904437103 ], [ -112.123207937402995, 41.212915976424007 ], [ -112.123758536400004, 41.210091832163194 ], [ -112.123073656336004, 41.208810145692205 ], [ -112.119710714255007, 41.207801878305197 ], [ -112.121287818127001, 41.205239968651497 ], [ -112.132232540307996, 41.205191783787185 ], [ -112.139808301694998, 41.205191059949499 ], [ -112.141817146673006, 41.19938483052281 ], [ -112.145665971320994, 41.195366014589887 ], [ -112.157342735117993, 41.190860345119702 ], [ -112.165719697618997, 41.183222897716291 ], [ -112.169817648451996, 41.162971994609009 ], [ -112.167601167778002, 41.152936085844402 ], [ -112.102998237519998, 41.152736052184707 ], [ -112.021095264059994, 41.152659393060894 ], [ -111.999636139670002, 41.152673060962798 ], [ -111.98778470026302, 41.152664330740393 ], [ -111.987810423521012, 41.154389041479199 ] ] ], [ [ [ -111.942710216321998, 41.165843356846601 ], [ -111.941966253163997, 41.164934069671702 ], [ -111.940904611584997, 41.164938600665899 ], [ -111.940928858910993, 41.165425095077588 ], [ -111.942710216321998, 41.165843356846601 ] ] ] ] } }
]
}
